"RegistrationNo","FacilityName","TaxidNo","Address","Latitude","Longitude"
"A3404974","台灣杜邦股份有限公司",11907311,"臺北市松山區敦化北路１６７號１３樓",25.0547646,121.5494174
"A34A1174","台塑大金精密化學股份有限公司",70467423,"臺北市松山區敦化北路２０１之３２號４樓",25.057112,121.549533
"A34A1401","李長榮科技股份有限公司",97173920,"臺北市松山區八德路四段８３號５樓",25.0486166,121.5604495
"A34A6897","永寬化學股份有限公司",16584156,"臺北市松山區敦化北路１５５巷３號６樓",25.0541989,121.549824
"A34A7895","協承昌股份有限公司",16326209,"臺北市松山區復興北路１號８樓之７",25.0479311,121.5442257
"A34A8635","約泰實業股份有限公司",11489800,"臺北市松山區復興北路３６９號７樓之６",25.0626001,121.5447579
"A34B0420","台灣科慕股份有限公司",24548079,"臺北市松山區敦化北路１６７號１４樓",25.0547646,121.5494174
"A34B4432","優美特創新材料股份有限公司",42842193,"臺北市松山區南京東路四段１７１號１２樓之４",25.0518401,121.5563649
"A3504193","德亞樹脂股份有限公司",36545738,"臺北市大安區忠孝東路四段４８號５樓",25.0414226,121.5448616
"A35B1403","僑力化工股份有限公司",23991881,"臺北市大安區仁愛路四段２８號４樓",25.037646,121.546502
"A35B5485","永宜股份有限公司",22783344,"臺北市大安區龍圖里復興南路二段８２號６樓之１",25.0309643,121.5433064
"A35B5613","台灣多胺股份有限公司",14032475,"臺北市大安區信義路四段３０６號１１樓之１",25.0329619,121.5549091
"A35B6988","百達精密化學股份有限公司",70476582,"臺北市大安區光復南路４２０巷１弄４１號",25.0356569,121.5569903
"A35B7332","三橫實業股份有限公司",30986119,"臺北市大安區仁愛路三段１０８號７樓",25.0375418,121.5395789
"A35B8340","新龍光塑料股份有限公司",28715554,"臺北市大安區金山南路二段２００號７樓",25.0278072,121.5259208
"A35C7577","東?股份有限公司",11384405,"臺北市大安區敦化南路二段９９號２３樓",25.0288698,121.5494371
"A3604152","台灣苯乙烯工業股份有限公司",20844865,"臺北市中正區羅斯福路一段６號８樓之１",25.0330294,121.5176843
"A3604214","台界化學工業股份有限公司",12213318,"臺北市中山區中山北路一段１１號８樓",25.04845,121.521203
"A36B1072","合記化學股份有限公司",79138401,"臺北市中正區福州街５６號",25.0267749,121.515169
"A36B9105","優美特創新材料股份有限公司",42842193,"臺北市中正區思源街１８號 台大育成中心B棟３０６室",25.0136964,121.5297208
"A36B9264","奕益實業有限公司",89441249,"臺北市中正區羅斯福路二段１０２號１８樓",25.0266805,121.5223937
"A3704095","義芳化學工業股份有限公司",15395706,"臺北市萬華區莒光路３１０號７樓",25.031284,121.4978995
"A37A8709","三義化學工業股份有限公司",23827741,"臺北市萬華區莒光路３１０號７樓",25.031284,121.4978995
"A3905065","昭和特殊氣體股份有限公司",97168953,"臺北市中山區南京東路二段１２５號１４樓",25.052322,121.534423
"A3905887","長春石油化學股份有限公司",11384806,"臺北市中山區臺北市松江路３０１號７樓",25.0611915,121.5334002
"A3906428","信昌化學工業股份有限公司",86120031,"臺北市中山區中山北路二段１１３號９樓",25.0607349,121.52322
"A3907827","產協企業股份有限公司",11829913,"臺北市中山區南京東路二段９０號３樓",25.0517536,121.5311831
"A39A0191","三福化工股份有限公司",80170651,"臺北市中山區中山北路二段２１號５樓",25.053073,121.5228238
"A39A3640","台灣昭和化學品製造股份有限公司",27532156,"臺北市中山區南京東路二段１２５號１４樓",25.052322,121.534423
"A39B4140","台灣索理思股份有限公司",12466782,"臺北市中山區民權東路三段３７號７樓",25.0625914,121.5423132
"A39B4378","和協工程股份有限公司",84447589,"臺北市中山區南京東路二段２０６號１４樓",25.0518085,121.5353947
"A39B5138","國泰樹脂工業股份有限公司",35360705,"臺北市中山區長安東路一段１８號１１樓",25.0491987,121.5235927
"A39B6819","台灣寶理塑膠股份有限公司",22853994,"臺北市中山區南京東路二段１３７號１２樓",25.0523667,121.5351968
"A39B8954","聯超實業股份有限公司",89609149,"臺北市中山區南京東路二段２０６號１３樓之５",25.0518085,121.5353947
"A39C0779","和新化學工業股份有限公司",97105579,"臺北市中山區德惠街９號８樓之２",25.0669305,121.5250017
"A39C8020","青上化工廠股份有限公司",20809467,"臺北市中山區南京東路二段２號８樓",25.0518481,121.5281047
"A39C9197","力麟科技股份有限公司",24973849,"臺北市中山區松江路１６２號１１樓",25.0554904,121.5328073
"A39D1467","台灣陶氏化學股份有限公司",21242638,"臺北市中山區民生東路三段２號５樓之２、之３",25.0576494,121.5376925
"A39D1615","台灣羅門哈斯化學工業股份有限公司",23928282,"臺北市中山區民生東路三段２號５樓之２、３",25.0576494,121.5376925
"A41B2217","昱星生物科技股份有限公司",52485407,"臺北市南港區研究院路一段１３０巷９９號C棟 ５樓之５２４",25.0488983,121.6116098
"A4202732","新鈺生技股份有限公司",22357854,"臺北市內湖區瑞光路３６０號６樓",25.0772089,121.5724071
"A42B2242","穩好高分子化學工業股份有限公司",22363292,"臺北市內湖區內湖路一段１２０巷２１號６樓",25.082001,121.562265
"A42B2698","元鴻應用材料股份有限公司",22878088,"臺北市內湖區瑞光路２５８巷５０號６樓之１",25.074559,121.5747625
"A42B6195","群越材料股份有限公司",53764069,"臺北市內湖區內湖路一段９１巷２３弄２號２樓、８號２樓",25.0863018,121.5623444
"A42B6907","華夏海灣塑膠股份有限公司",11686106,"臺北市內湖區基湖路３７號１２樓",25.0795272,121.5651097
"A42B8547","日月星科技股份有限公司",80306123,"臺北市內湖區瑞光路２５８巷５３號５樓５５號５樓",25.07474,121.574433
"A42C1677","台達化學工業股份有限公司",11893409,"臺北市內湖區基湖路３７號１２樓",25.0795272,121.5651097
"A45B2019","中興紡織廠股份有限公司",35082604,"臺北市信義區基隆路一段２００號１０樓之１",25.0401707,121.5635384
"B0000833","永裕電化工業股份有限公司",57046202,"臺中市烏日區慶光路１０３６號１樓",24.0954609,120.6237754
"B0101317","興農股份有限公司",51911712,"臺中市大肚區南榮路１０１號１樓",24.1122654,120.5810917
"B0101380","興太化學股份有限公司",23983502,"臺中市大肚區南榮路１０７號",24.1124372,120.580806
"B0101406","興農股份有限公司生物工廠",51911712,"臺中市大肚區南榮路７０巷１０號",24.1128937,120.582116
"B0101460","吉榮樹脂股份有限公司",22594147,"臺中市大肚區王田里沙田路一段３２０巷２７號",24.1275663,120.5696443
"B0102725","興農股份有限公司王田二廠",51911712,"臺中市大肚區南榮路一○九號、臺中市烏日區南榮路５７號",24.1136515,120.5675862
"B0206273","崧煌實業股份有限公司",27515847,"臺中市龍井區西濱路三段５５號",24.2115203,120.5195075
"B0300436","生發化學生技股份有限公司",84597904,"臺中市霧峰區北柳里霧工三路１１號",24.0614676,120.6782087
"B0300936","金佑發企業股份有限公司",80476843,"臺中市霧峰區北柳里霧工三路１３號",24.0613794,120.6782191
"B0300954","金佑發企業股份有限公司",80476843,"臺中市霧峰區北柳里霧工三路１３號１、２、３樓",24.0613794,120.6782191
"B0304069","甘農股份有限公司-土壤污染應變必要措施計畫",55892878,"臺中市霧峰區五福路５５７號",24.084472,120.654062
"B0400744","新昌複合材料股份有限公司",28401738,"臺中市太平區德隆里工業二十路８２號１樓",24.107784,120.720307
"B0500472","孟鄉生化科技股份有限公司二廠",52907151,"臺中市大里區東湖里中興路一段１巷１弄２之１號３、４樓",24.0795465,120.6977348
"B0508503","孟鄉生化科技股份有限公司三廠",52907151,"臺中市大里區仁化里仁化路６９４號１樓",24.0965279,120.6984703
"B19A1847","誠吉科技有限公司",53268890,"臺中市東區東門里天乙街１４０巷３２號１樓",24.1247881,120.6955827
"B2300096","力寶化工廠股份有限公司",55879559,"臺中市西屯區協和里工業區九路１８號",24.170929,120.601154
"B2300112","三福氣體股份有限公司台中廠",11072509,"臺中市西屯區協和里工業區三路９號",24.1630783,120.6090675
"B2301584","三櫻企業股份有限公司",51074905,"臺中市西屯區台中港路三段８９之２０號",24.173493,120.637225
"B2302241","台氟科技股份有限公司",97590122,"臺中市西屯區協和里工業區七路２８號",24.1663315,120.6036752
"B2302723","宏全國際股份有限公司台中廠",58176511,"臺中市西屯區協和里工業區二路６號",24.1683107,120.6120321
"B2303319","大東樹脂化學股份有限公司台中廠",51008069,"臺中市西屯區工業區三四路３５號",24.1769764,120.6424333
"B2308994","頌勝化學工業股份有限公司台中工業區廠",22231552,"臺中市西屯區協和里工業區一四路２號",24.1691515,120.6083428
"B2309240","時慶實業股份有限公司台中工業區廠",86085668,"臺中市西屯區協和里工業區三十三路１４號１樓",24.1658381,120.5935529
"B2312952","吉祥資源科技股份有限公司",28321679,"臺中市西屯區協和里工業區三十三路１７之１號",24.1725574,120.5956884
"B2313762","宏全國際股份有限公司台中二廠",58176511,"臺中市西屯區協和里工業區二路７號",24.1691943,120.6125534
"B23A5932","達興材料股份有限公司中科廠",28357108,"臺中市西屯區科園一路１５號",24.2057057,120.6081895
"B23A7463","友達晶材股份有限公司台中廠",24410807,"臺中市西屯區科雅路３號",24.2337858,120.6346726
"B23B0563","大東樹脂化學股份有限公司",51008069,"臺中市西屯區工業區三十四路３５號",24.1678227,120.5928388
"B23B0761","宏全國際股份有限公司",58176511,"臺中市西屯區協和里工業區二路６號",24.1683107,120.6120321
"B23B2430","福績樹脂化工股份有限公司",52758286,"臺中市西屯區工業區三十六路１１號１樓",24.173919,120.5917186
"B23B6175","達興材料股份有限公司",28357108,"臺中市西屯區科園一路１５號",24.2057057,120.6081895
"B23B7420","頌勝化學工業股份有限公司",22231552,"臺中市西屯區協和里工業區十四路２號１樓",24.1763216,120.5950635
"B23B7965","光宇材料股份有限公司",54595817,"臺中市西屯區市政北二路２３６號９樓之１",24.1634242,120.6375545
"B23C0580","宏全國際股份有公司廠房增建工程",58176511,"臺中市西屯區工業區二路７號",24.1691943,120.6125534
"B23C2605","優美特創新材料股份有限公司",42842193,"臺中市西屯區東大路一段９５１號",24.2015815,120.6090718
"B2400420","高鼎精密材料股份有限公司",22777510,"臺中市南屯區寶山里工業區二十一路３５號",24.157245,120.60662
"B2402488","嘉泰化學工業股份有限公司",86835748,"臺中市西屯區協和里工業區四十一路２８號",24.172773,120.58515
"B2402755","統全樹脂化工廠股份有限公司",52921718,"臺中市南屯區寶山里工業區十八路１０號",24.1591044,120.610641
"B24B1516","大東樹脂化學股份有限公司精科廠",51008069,"臺中市南屯區文山里精科二路１２號",24.1495576,120.5993749
"B24B5904","興農股份有限公司生物科技台中廠",51911712,"臺中市南屯區工業區二十一路５０號",24.1549705,120.6051152
"B24C1266","高鼎精密材料股份有限公司二一六廠",22777510,"臺中市南屯區寶山里工業區二十一路３５之１號",24.1566157,120.6059626
"B2500023","全發實業有限公司",51160280,"臺中市北屯區舊社里北屯路４３９之１０號",24.1786864,120.7002512
"B25A9221","大豐環保科技股份有限公司",27590900,"臺中市北屯區崇德九路２８７號",24.1867972,120.6900323
"B8800022","北裕塑膠工業股份有限公司大甲廠",80619201,"臺中市大甲區日南里青年路１２５號",24.4018936,120.6509871
"B8800577","汐茂材料科技有限公司",53366371,"臺中市大甲區幼獅路６３之１號",24.4026558,120.6553803
"B8801038","北裕塑膠工業股份有限公司大甲二廠",80619201,"臺中市大甲區青年路１３７、１３９號",24.3999937,120.6532918
"B8801645","禎佶祥實業股份有限公司三廠",96886739,"臺中市大甲區幸福里長安路２０之６號",24.3879787,120.6636796
"B8801743","慶泰樹脂化學股份有限公司二廠",35891957,"臺中市大甲區工二路５８、５８之１、６０號",24.3987796,120.657454
"B8802151","三晃股份有限公司大甲廠",55738290,"臺中市大甲區日南里青年路１４０號",24.4001057,120.6523215
"B8903797","志森塑膠複合材料有限公司",12749190,"臺中市清水區菁埔路２００號",24.2860929,120.581795
"B9100209","宏全國際股份有限公司無菌飲料二廠",58176511,"臺中市梧棲區草湳里大業路６號",24.2345372,120.5141152
"B9100469","聯友科技股份有限公司",97162971,"臺中市梧棲區大成南路３號",24.2332683,120.5104821
"B9100601","三櫻企業股份有限公司",51074905,"臺中市梧棲區經三路４７號",24.2424655,120.5100165
"B9101742","立安東化工股份有限公司台中廠",20939460,"臺中市梧棲區草湳里南堤路二段９９號",24.2613362,120.4966377
"B9102141","達興材料股份有限公司中港廠",28357108,"臺中市梧棲區草湳里中港加工出口區建八路２號",24.2422046,120.5175294
"B9103997","光宇材料股份有限公司",54595817,"臺中市梧棲區永安里自立路３９號",24.2279749,120.5207652
"B9107226","宏全國際股份有限公司港加段19-1等2筆地號機房新建工程(雜項)",58176511,"臺中市梧棲區港加段１９之１等２筆地號",24.2490793,120.5386546
"B9107351","宏全國際股份有限公司無菌三廠",58176511,"臺中市梧棲區緯六路２號",24.2431839,120.5163385
"B9200124","友達晶材股份有限公司后里廠",24410807,"臺中市后里區后科路二段３３５號",24.3200959,120.7290279
"B9202404","友達晶材股份有限公司",24410807,"臺中市后里區后科路二段３３５號",24.3200959,120.7290279
"B9500156","台灣昕陽有限公司",24373042,"臺中市大雅區四德村中清路一段７８號",24.1530104,120.6774726
"B9501153","聯亞科技股份有限公司中科聯豐工廠",22099456,"臺中市大雅區科雅二路６之１號",24.2146431,120.623373
"B9800277","智邦材料股份有限公司",53272894,"臺中市外埔區三崁里二崁路１１０號",24.3250351,120.653448
"B9800795","良欣氣體股份有限公司",25183300,"臺中市外埔區水美里二崁路５８８巷２２號",24.3270872,120.631203
"C1104182","頌琦工業有限公司",86596330,"基隆市七堵區工建北路９之１號",25.0862225,121.70423
"D0300138","住華科技股份有限公司南科二廠",70848177,"臺南市新市區環西路一段３號(FAB７ １樓A、C區及３樓B區及T０C FAB_５FA區、SUP ２F_B、C區、SUP １F_D區)",23.0901596,120.2774192
"D0302338","江盈先進材料股份有限公司",54566334,"臺南市新市區港墘里國際路１５號５樓之１",23.0793296,120.297359
"D0302365","沛科精密股份有限公司",27683359,"臺南市新市區豐華里南科三路１１號１樓",23.0986449,120.2835107
"D0302794","博謙生技股份有限公司",54574685,"臺南市新市區環東路一段３１巷２號(２樓、４樓、５樓)、６號(２樓、４樓、５樓)、８號(２樓、４樓、５樓)、１０號(４樓、５樓)",23.0976689,120.2850917
"D0303415","博謙生技股份有限公司",54574685,"臺南市新市區環東路一段３１巷２號５樓",23.0976689,120.2850917
"D0305179","博謙生技股份有限公司二廠",54574685,"臺南市新市區新科段１３７地號",23.0780281,120.2919179
"D0305473","聯亞科技股份有限公司-TSMC F18-氫/氮氣地下管工程(樹谷-南科九路土木工程)-嘉標",22099456,"臺南市新市區新晶段５１地號",23.0780281,120.2919179
"D0306069","聯亞科技股份有限公司樹谷工廠",22099456,"臺南市新市區新晶段５１地號",23.0780281,120.2919179
"D0400473","金水化學有限公司",53176105,"臺南市安定區安加里安定２５８之１１號",23.1102654,120.2365575
"D1000959","祥金實業有限公司",22964247,"臺南市仁德區新田里勝利路２６９號",22.9542858,120.2681169
"D1002873","宏昌實業廠",13717386,"臺南市仁德區大甲里中正西路１０７３巷１５號",22.9224216,120.2001904
"D1003423","奇美實業股份有限公司",68387705,"臺南市仁德區上崙里中正路一段５２８號",22.932606,120.2464391
"D1008937","心勝實業股份有限公司",42913014,"臺南市仁德區興安段８８６地號",22.9472553,120.2511778
"D1009667","代順企業有限公司",89381565,"臺南市仁德區保安里開發三路５號",22.92189,120.2455489
"D1101013","三星科技股份有限公司",68040606,"臺南市歸仁區中山路三段３５５之６號１樓",22.9682873,120.2790415
"D1101639","三星科技股份有限公司南興六?",68040606,"臺南市歸仁區南興里中山十一街３３號",22.9679187,120.2764665
"D1101835","三星科技股份有限公司南興五廠",68040606,"臺南市歸仁區南興里中山路三段３５５之５號",22.9682873,120.2790415
"D1104603","南寶樹脂化學工廠股份有限公司歸仁廠",74229304,"臺南市歸仁區歸仁北段１３３４之２地號",22.9701826,120.2959658
"D1200922","天耀企業社",10846132,"臺南市關廟區埤頭里保東二街１８８號",23.0008811,120.3053804
"D1401447","塑城有限公司",53490630,"臺南市永康區三民里和平東路１１７號",23.0551505,120.2655781
"D1401483","協承昌股份有限公司永康參廠",16326209,"臺南市永康區王行里經中路１６號",23.0473959,120.2706226
"D1403487","一德科技有限公司永科廠",53151569,"臺南市永康區王行里永科七路８號",23.0387195,120.2833697
"D1403496","一心實業廠有限公司永科廠",86978822,"臺南市永康區王行里永科七路１０號",23.0386868,120.2832593
"D1413241","仁鴻資源再生有限公司",24492981,"臺南市永康區?洲里鹽行路２４７號B棟",23.0406517,120.230726
"D1414917","憲成壓克粒股份有限公司",22398285,"臺南市永康區東橋里中正路２７９巷２１弄３０號",23.0296372,120.24373
"D1417454","創想生物科技有限公司",24963125,"臺南市永康區環工路４７號",23.043243,120.270502
"D2806393","良美壓克力股份有限公司",86621149,"臺南市南區彰南里新樂路１６號",22.978164,120.177246
"D28A0616","奇美實業股份有限公司",68387705,"臺南市南區鯤鯓里新港路３７５號",22.9699857,120.1736625
"D28A4202","臺鹽實業股份有限公司",89397503,"臺南市南區健康路一段２９７號",22.9811712,120.2039161
"D28A7959","同泰壓克力行",56904423,"臺南市南區明興路６１９巷４９９弄５６號",22.9427575,120.1934978
"D3205256","生達企業股份有限公司",69766280,"臺南市安南區本原街二段１３２巷６０弄９號",23.0576232,120.186973
"D3209558","昭和特殊氣體股份有限公司台南廠",97168953,"臺南市安南區鹽田里工環路一二號、工業六路３６號",23.0365636,120.1588567
"D3209638","臺鹽實業股份有限公司生技一廠",89397503,"臺南市安南區鹽田里工環路１０號",23.0369754,120.1584272
"D3209647","臺鹽實業股份有限公司生技二廠",89397503,"臺南市安南區鹽田里工業二路２０號",23.0352991,120.158456
"D3209790","達泰科技股份有限公司",80342471,"臺南市安南區鹽田里工業二路２１號３樓",23.0356339,120.1572645
"D3209843","盈昌科技工業股份有限公司",80233234,"臺南市安南區鹽田里工業五路３０號",23.0418847,120.1399356
"D32A0997","台灣東洋先端科技股份有限公司台南廠",70815534,"臺南市安南區?田里工業三路５０號",23.0379295,120.1498452
"D32A1232","昭和特殊氣體股份有限公司台南二廠",97168953,"臺南市安南區?田里工環路３號",23.0377476,120.1571441
"D32A4385","臺鹽實業股份有限公司研發處生技工廠",89397503,"臺南市安南區?田里工環路１５號",23.036233,120.159748
"D32A4711","金台灣企業股份有限公司",89247293,"臺南市安南區安順里安和路四段３６巷７４弄２３號",23.0511198,120.2211503
"D32A6638","士峰科技股份有限公司",53390317,"臺南市安南區工業二路３１號",23.0335232,120.1584468
"D32A6668","士峰科技股份有限公司",53390317,"臺南市安南區工業二路３１號研２館４１１、７０２、７０９室",23.0335232,120.1584468
"D32A9989","亞東工業氣體股份有限公司台南廠",22522453,"臺南市安南區鹽田里工業三路３０號",23.0364827,120.1517559
"D32B1516","昭和特殊氣體股份有限公司台南廠",97168953,"臺南市安南區工業六路３６號",23.0394791,120.1378078
"D32B4500","士峰科技股份有限公司",53390317,"臺南市安南區顯宮里科技一路２０號",23.0410928,120.150684
"D32B9233","台江股份有限公司",42925546,"臺南市安南區安順里台江大道一段５９５號",23.0542417,120.2181604
"D8400126","達穎應材股份有限公司",53373437,"臺南市新營區嘉芳里嘉芳街１６８號",23.3044487,120.2861565
"D8400831","海威股份有限公司",54061762,"臺南市新營區嘉芳里新芳街１４號",23.308388,120.2828287
"D8402424","雅川實業有限公司",24901830,"臺南市新營區嘉芳里四維路７號",23.3073882,120.2805219
"D8703104","新廣銓有限公司麻豆廠",42917031,"臺南市麻豆區麻口里麻豆口３２之３７號",23.181381,120.220157
"D8801454","強新工業股份有限公司五廠",84703335,"臺南市佳里區海澄里萊竿寮１２之３５號",23.1838669,120.1788565
"D8802782","強新工業股份有限公司佳里六廠A棟",84703335,"臺南市佳里區海澄里萊竿寮１７之３２號",23.181976,120.172088
"D8803047","強新工業股份有限公司佳里六廠B棟",84703335,"臺南市佳里區海澄里萊竿寮１７之３５號",23.181976,120.172088
"D8803234","強新工業股份有限公司佳里七廠",84703335,"臺南市佳里區海澄里萊芊寮１２之３７號",23.1796232,120.1742702
"D8803761","東皋企業股份有限公司",74714615,"臺南市佳里區海澄里萊芊寮１２之５號",23.1796232,120.1742702
"D9001127","台灣日立化成電子材料股份有限公司",29184956,"臺南市善化區環東路二段２１號",23.1086646,120.2824369
"D9002188","三福氣體股份有限公司南科分公司南科7廠",11072509,"臺南市善化區安順一路３號",23.1109365,120.2641686
"D9003354","慧盛材料股份有限公司南科廠",42839916,"臺南市善化區胡厝里興農路７７２號甲廠",23.128189,120.2617339
"D9101453","利通樹脂股份有限公司台南廠",28717722,"臺南市學甲區新榮里華宗路１０８號",23.2265428,120.1832323
"D9200086","欣岱實業股份有限公司柳營廠",69774583,"臺南市柳營區大農里環園東路二段８號",23.2798239,120.3621853
"D9200504","樺正實業股份有限公司柳營廠",97210018,"臺南市柳營區大農里工五路８號",23.280342,120.3603708
"D9200513","三福化工股份有限公司柳科廠",80170651,"臺南市柳營區大農里環園東路一段１號",23.2690281,120.3562604
"D9200586","明炫精密化學股份有限公司台南廠",28706437,"臺南市柳營區大農里環園西路一段１５號",23.2691442,120.3553573
"D9201001","育宗特用材料股份有限公司",86757193,"臺南市柳營區大農里工七路１６號",23.2726345,120.3540937
"D9201225","瑞商建材股份有限公司柳營廠",54362438,"臺南市柳營區大農里環園東路二段１５號",23.2829029,120.36241
"D9201243","久芳生物科技股份有限公司",53265319,"臺南市柳營區大農里工二路８號",23.280342,120.3603708
"D9202688","光宇材料股份有限公司台南廠",54595817,"臺南市柳營區大農里環園西路二段４０號",23.2863731,120.3535647
"D9202768","寶綠特資源再生科技股份有限公司",64978460,"臺南市柳營區大農里工五路３號",23.2801923,120.3603285
"D9203149","台昌樹脂企業股份有限公司柳科廠",72006931,"臺南市柳營區工六路１號",23.2742466,120.3544962
"D9203390","平和資源科技股份有限公司",42931809,"臺南市柳營區大農里工七路１１號",23.2835718,120.3516125
"D9203603","光宇材料股份有限公司",54595817,"臺南市柳營區大農里環園西路二段４０號",23.2863731,120.3535647
"D9700018","廉捷科技股份有限公司",53282540,"臺南市官田區二鎮里成功街６８號",23.2109146,120.3297795
"E1600345","寬亮企業有限公司",28293484,"高雄市岡山區本工五路１之１號",22.8077667,120.2732044
"E1600381","元佳宇有限公司",28877776,"高雄市岡山區前鋒路２８６巷８號",22.8031799,120.282233
"E1600390","元佳宇有限公司二廠",28877776,"高雄市岡山區壽峰里前鋒路２８６巷６號",22.8031799,120.282233
"E1600470","富崇企業有限公司",16711913,"高雄市岡山區本洲路１９７之１號",22.8066871,120.2674
"E1601020","萬璁實業有限公司",96875590,"高雄市岡山區本洲里本工三路２２號",22.8107572,120.2727636
"E1605957","旺富工業有限公司",42816414,"高雄市岡山區嘉興路６１號",22.8170284,120.3016922
"E1606436","長日泰企業社",25731329,"高雄市岡山區為隨東路６８之６號",22.8205457,120.2899087
"E1607826","展昕塑膠有限公司",83531807,"高雄市岡山區高雄市岡山區正氣路１９９巷６、８、１０號",22.8048804,120.2802631
"E1901776","台灣氯乙烯工業股份有限公司",19084015,"高雄市林園區溪州里工業一路１號",22.5104323,120.404652
"E1901829","台灣石化合成股份有限公司",30974253,"高雄市林園區工業二路１號",22.4985559,120.4144628
"E1901990","合興石化工業股份有限公司",23531178,"高雄市林園區溪州里石化二路２號",22.4985886,120.4077156
"E1902497","林園先進材料科技股份有限公司",42818882,"高雄市林園區北汕里林園工業區石化四路１號",22.4876712,120.4083763
"E1902988","信昌化學工業股份有限公司林園廠-採土壤離場處理",86120031,"高雄市林園區五福里工業三路９號",22.4922113,120.4156221
"E1903118","坤發興業有限公司",53633503,"高雄市林園區中門路３３９巷４２號",22.5078337,120.3658988
"E2000018","樂利得實業股份有限公司",24519882,"高雄市大寮區潮寮里田單三街１１、１３號",22.5749982,120.4306835
"E2000107","淨寶化工股份有限公司二廠",23664373,"高雄市大寮區大業街６之１號",22.5804484,120.430595
"E2000376","昭侒化工有限公司",28584384,"高雄市大寮區華西路３８之１號",22.5878692,120.4231181
"E2000750","巨呈工業股份有限公司",22839375,"高雄市大寮區潮寮里建民街１７號",22.5769612,120.4307464
"E2000769","巨呈工業股份有限公司高雄大發廠",22839375,"高雄市大寮區潮寮里建民街１７號",22.5769612,120.4307464
"E2002067","青上化工廠股份有限公司大發廠",20809467,"高雄市大寮區華東路２２號",22.5756762,120.4332751
"E2004374","大連化學工業股份有限公司",12233428,"高雄市大寮區華西路８之１號",22.574971,120.4228903
"E2004918","淨寶化工股份有限公司建業一廠",23664373,"高雄市大寮區潮寮里建業路９號",22.5710211,120.4295824
"E2004927","淨寶化工股份有限公司建業二廠",23664373,"高雄市大寮區潮寮里建業路９之１號",22.5710211,120.4295824
"E20A3762","大軒化工股份有限公司",22220464,"高雄市大寮區大寮里大有一街８號",22.5887172,120.431028
"E20A4087","京磊實業有限公司",28596874,"高雄市大寮區裕民街４３號",22.5898784,120.4353579
"E2202790","臺灣塑膠工業股份有限公司",75708007,"高雄市仁武區竹後里水管路１００號",22.7059261,120.3350318
"E2202834","南亞塑膠工業股份有限公司",75370905,"高雄市仁武區竹後里水管路１０１號",22.7066992,120.3328627
"E2202852","寶力威精細材料股份有限公司",54202496,"高雄市仁武區鳳仁路３８３號",22.7164969,120.3330667
"E2204267","長春人造樹脂廠股份有限公司高雄二廠",11384708,"高雄市仁武區工業二路２７號",22.6989523,120.3413494
"E2205246","台灣聚合化學品股份有限公司",11917107,"高雄市仁武區後安里鳳仁路３３０號",22.7139428,120.3376327
"E2205620","高福化學工業股份有限公司",75415298,"高雄市仁武區鳳仁路３８５號",22.7155617,120.3356817
"E2300675","亞東工業氣體股份有限公司大社廠",22522453,"高雄市大社區三奶里三民路５３９之５號",22.7312242,120.3414806
"E2301823","寶力威精細材料股份有限公司萬金廠",54202496,"高雄市大社區保社里旗楠路１３３巷１５號",22.7542019,120.3558479
"E2401917","薈昇企業有限公司美山廠",23963436,"高雄市鳥松區美山路７７巷５號",22.6466699,120.3855457
"E2600787","漢棠企業有限公司",80388715,"高雄市燕巢區鳳雄里鳳旗路３５６號",22.7530091,120.350854
"E2602441","泓達化工股份有限公司燕巢廠-土壤及地下水污染控制場址",23418128,"高雄市燕巢區角宿里中興路９２２號",22.7761679,120.3605456
"E2602674","鎵田有限公司",82868583,"高雄市燕巢區安招里安北路２００號",22.7918697,120.3461016
"E2900264","台灣賽孚思科技股份有限公司高科總部",70848205,"高雄市路竹區竹南里路科三路１５號",22.8405846,120.2594378
"E2900700","國亨化學股份有限公司",22522756,"高雄市路竹區後鄉里長興路６６號",22.8462226,120.2429926
"E2901476","台灣賽孚思科技股份有限公司",70848205,"高雄市路竹區路科三路１５號",22.8405846,120.2594378
"E2901565","誠泰工業科技股份有限公司高科廠",88744414,"高雄市路竹區路科三路１號",22.8309889,120.2607221
"E2902268","欣全實業股份有限公司高雄一廠",12107371,"高雄市路竹區中山南路５１號",22.8268664,120.2669434
"E2904566","日旺實業有限公司-日旺實業有限公司廠房新建工程",52455776,"高雄市路竹區聖母段３１地號",22.8494042,120.2628111
"E2904888","新揚科技股份有限公司二廠",70774800,"高雄市路竹區路科二路１０號",22.828654,120.2589548
"E3000423","霖昌能源股份有限公司",27659013,"高雄市湖內區中山路一段１１０號",22.8790962,120.2515939
"E3001153","融美壓克力股份有限公司",80705851,"高雄市湖內區中正路二段３９７巷１７號",22.9073291,120.2030687
"E3001251","穩翔塑膠實業有限公司二廠",22480313,"高雄市湖內區忠賢里中正路二段５２２巷２２弄１２號",22.9102052,120.2014729
"E3100482","高吉克科技股份有限公司",24661698,"高雄市茄萣區莒光路三段２７０之７號",22.9117843,120.1872149
"E48A8641","國新科技股份有限公司",53229665,"高雄市左營區大順一路９１號７樓之５",22.6558055,120.3113851
"E48A9788","緊固企業有限公司",28657837,"高雄市左營區大中二路３９號",22.6784635,120.3181492
"E49A3181","長華科技股份有限公司",70849957,"高雄市楠梓區開發路２４號",22.7224011,120.30609
"E49A6214","漢棠企業有限公司",80388715,"高雄市楠梓區惠春街７９號",22.7269742,120.319925
"E49A7460","長華科技股份有限公司二廠",70849957,"高雄市楠梓區楠梓加工區東七街１６號５樓",22.724706,120.3059924
"E49A9179","長華科技股份有限公司一廠",70849957,"高雄市楠梓區楠梓加工出口區東七街１６、１６之１、１６之２號",22.724706,120.3059924
"E49B0540","李長榮化學工業股份有限公司楠梓分公司楠梓廠",39054405,"高雄市楠梓區宏榮里研發路６６之９號",22.7131768,120.300415
"E5005944","順豐化學企業有限公司",75574416,"高雄市三民區美都路３００巷４４號",22.647416,120.2886064
"E5008034","長興材料工業股份有限公司",75339004,"高雄市三民區建工路５７８號",22.6500928,120.324123
"E50B0064","春發科技股份有限公司",75962990,"高雄市三民區建工路５８２號２樓",22.6497944,120.3238058
"E5400403","李長榮化學工業股份有限公司高雄碼頭儲運站",39054405,"高雄市前鎮區國華二街２之１號",22.5868412,120.2994588
"E5401393","台達化學工業股份有限公司前鎮廠",11893409,"高雄市前鎮區建基街３號",22.5908719,120.3001427
"E5401553","建豐企業股份有限公司",79328704,"高雄市前鎮區建基街７號",22.5949747,120.2970888
"E5401722","台灣塑膠工業股份有限公司第四工場",75708007,"高雄市前鎮區鎮北里建基街５號",22.5959446,120.2975506
"E5409746","南亞塑膠工業股份有限公司高雄廠",75370905,"高雄市前鎮區中山三路３５之１號",22.602538,120.310437
"E54A0265","京磊實業有限公司",28596874,"高雄市前鎮區公正路１７８號",22.6060556,120.3309191
"E54A7726","亞東工業氣體股份有限公司前鎮二廠",22522453,"高雄市前鎮區南四路五號(部分)、南五路６號(部分)",22.5939917,120.2945816
"E54A8605","天成先進材料股份有限公司",29187118,"高雄市前鎮區南五路４號２樓",22.5929924,120.2951014
"E54B0341","凱鍶科技股份有限公司",24629810,"高雄市前鎮區高雄加工出口區南三路８號４樓",22.5955183,120.2936414
"E5600010","三福化工股份有限公司高雄廠",80170651,"高雄市小港區龍鳳里中亨街４５號",22.5311647,120.3628263
"E5600136","台灣志氯化學股份有限公司?氯廠",22318516,"高雄市小港區鳳森里中智街２５號",22.5326798,120.3628366
"E5600305","李長榮化學工業股份有限公司高雄廠",39054405,"高雄市小港區山明里中林路３號",22.5387033,120.3691742
"E5600378","東聲企業股份有限公司",81254762,"高雄市小港區大業南路４５號",22.530639,120.366901
"E5602827","新和化學股份有限公司高雄廠",22102038,"高雄市小港區中亨街４７號",22.5296532,120.3632699
"E5602890","鼎基先進材料股份有限公司",81486019,"高雄市小港區山明里北林路８之１號",22.556982,120.370837
"E5603244","亨欣工業股份有限公司",97141006,"高雄市小港區永光街２之２號",22.5527202,120.3699885
"E5603655","李長榮科技股份有限公司銅箔廠",97173920,"高雄市小港區山明里中林路３之１號",22.5387033,120.3691742
"E5604401","三福氣體股份有限公司小港廠",11072509,"高雄市小港區龍鳳里中亨街４５、４５之１號",22.5294061,120.3633322
"E56A2568","聯通氣體股份有限公司",80378907,"高雄市小港區小港里台機路２６之１號",22.5567391,120.3414206
"E56A2687","台灣志氯化學股份有限公司",22318516,"高雄市小港區鳳森里中智街２５號",22.5326798,120.3628366
"E56A8596","李長榮化學工業股份有限公司",39054405,"高雄市小港區中林路３號",22.5387033,120.3691742
"E56B1250","台灣昭和化學品製造股份有限公司",27532156,"高雄市小港區中亨街４５之１號",22.5294061,120.3633322
"E56B1498","環球橡膠股份有限公司小港廠",29058640,"高雄市小港區鳳宮里中林路１６、１８、２０號",22.5383568,120.3681031
"E56B1646","環球橡膠股份有限公司",29058640,"高雄市小港區中林路１６號",22.5383568,120.3681031
"E56B2466","信昌化學工業股份有限公司小港倉庫",86120031,"高雄市小港區小港里長春街１４號",22.563964,120.3432621
"F01C0960","禎祥實業股份有限公司",34205241,"新北市板橋區文化路一段２６６號７樓之１",25.02076,121.466952
"F02A5436","王子製藥股份有限公司",35048803,"新北市三重區重新路三段１０７號９樓",25.0599256,121.4910155
"F0303028","原泰化工原料行",2334502,"新北市永和區信義路２１號１樓",25.0120545,121.5141194
"F04A8420","雙鍵化工股份有限公司",84754072,"新北市中和區中正路９５９號４樓",25.0071126,121.4830391
"F04B0899","台灣優芮特股份有限公司",16416519,"新北市中和區復興路２６３巷９弄１０號",24.989725,121.5032072
"F04B1431","雙鍵化工股份有限公司",84754072,"新北市中和區中正路９５１、９５３、９５５、９５９、９６１號１７樓及９５３、９５５號１８樓",25.0066176,121.483257
"F05A9166","申旺實業股份有限公司",80394809,"新北市新店區寶橋路２３５巷１弄１號５樓",24.9804041,121.5511977
"F05C1057","瑞鋕實業有限公司",55174779,"新北市新店區僑信路９０巷１３號",24.9476817,121.4993889
"F0601323","日台興業股份有限公司",34141943,"新北市新莊區瓊林南路１８７巷１４號",25.0096324,121.4351236
"F0616397","大川實業有限公司",35004066,"新北市新莊區復興路三段６１、６３號",25.0446396,121.4620828
"F0619469","啟兆企業股份有限公司",34080164,"新北市新莊區新樹路５５１巷５號",25.006874,121.4337427
"F0622395","南海股份有限公司",84300369,"新北市新莊區瓊林南路７７之１２號",25.0132493,121.4347821
"F06A3282","全鎂企業有限公司",97373130,"新北市新莊區化成路６３０巷９弄３號",25.055333,121.466597
"F06A4092","宏進橡膠工業有限公司",23364447,"新北市新莊區新樹路６９之５９號",25.0293498,121.4385663
"F06A4814","德鉅企業股份有限公司(實驗室)",84243852,"新北市新莊區民安西路２１２巷５弄２４號",25.0144752,121.4248474
"F06A4884","三福氣體股份有限公司西盛廠",11072509,"新北市新莊區新樹路２９３巷１１號",25.0202117,121.4347596
"F06A6662","群燁實業有限公司",15860983,"新北市新莊區新樹路４８３巷１號２樓",25.0129636,121.4331982
"F06B8487","群燁實業有限公司(新莊廠)",15860983,"新北市新莊區新樹路４８３巷１號１樓",25.0129636,121.4331982
"F06B9247","博桉生物技術股份有限公司",52534104,"新北市新莊區五權二路２０號４樓之５",25.066602,121.45761
"F06C1834","博桉生物技術股份有限公司",52534104,"新北市新莊區五權二路４０號２樓之５",25.0683153,121.4590592
"F0701293","南亞塑膠工業股份有限公司台染廠",75370905,"新北市樹林區味王街五七號(含味王街５５號)",24.9734592,121.4044138
"F0701702","南亞塑膠工業股份有限公司樹林廠",75370905,"新北市樹林區味王街５５號",24.9734592,121.4044138
"F0705577","上弘塑膠有限公司樹林廠",22382805,"新北市樹林區西圳街８８之２５號",24.9634189,121.4003868
"F0721937","承德油脂股份有限公司",22051761,"新北市樹林區中山路二段２４９巷２９之１號",24.9755095,121.4030611
"F07A0609","寰亞化工有限公司工興廠",36204231,"新北市樹林區工興街１５之１號１樓",25.0137679,121.3986813
"F07A7388","德創奈米科技股份有限公司",54694680,"新北市樹林區俊安街２２號１樓",25.0140427,121.4195271
"F07B3858","南亞塑膠工業股份有限公司樹林二廠",75370905,"新北市樹林區東山里味王街５７號",24.9735166,121.4046774
"F0900429","承德油脂股份有限公司",22051761,"新北市三峽區添福里添福１２、１２之１號",24.9036509,121.372122
"F0901159","松益化工股份有限公司",33154201,"新北市三峽區添福里添福４８之１號",24.893751,121.375132
"F09A2021","廣鑫科技股份有限公司",13110472,"新北市三峽區添福５９之３號２樓",24.9438709,121.3654643
"F09A2041","惠寶貿易有限公司三峽廠",22604709,"新北市三峽區白雞６４之４號",24.905763,121.399136
"F09A3257","協利泡綿有限公司",22244825,"新北市三峽區紫新路２６巷１１號",24.9216675,121.4232987
"F09A4651","開運國際環保實業有限公司",80095675,"新北市三峽區介壽路二段１３６巷４５弄１號",24.931877,121.392272
"F09A6271","開運國際環保實業有限公司",80095675,"新北市三峽區介壽路二段１３６巷４５弄２號",24.9343323,121.3931005
"F09A7110","瑋璿科技股份有限公司",34342630,"新北市三峽區學成路３３５號２樓之８",24.9450107,121.3766281
"F09A7982","晉茂實業股份有限公司",27326634,"新北市三峽區添福里添福１４之３８號１樓",24.900189,121.37238
"F1000151","台菱樹脂工業股份有限公司",37021055,"新北市淡水區下圭柔山７０之４號",25.2070099,121.4468355
"F1001041","松江實業股份有限公司淡水廠",11327209,"新北市淡水區下圭柔山７０之３號",25.2070099,121.4468355
"F10B5992","翰進實業有限公司",42735784,"新北市淡水區淡金路四段１５１號１樓",25.220638,121.450482
"F1102909","全定化學工業有限公司汐止廠",16208765,"新北市汐止區大安街５６巷２１弄１２號",25.0740401,121.6780651
"F1106023","煜盛股份有限公司",85889506,"新北市汐止區新台五路一段７９號１６樓之８",25.061683,121.6459607
"F1115362","弘雄企業有限公司汐止廠",84397173,"新北市汐止區環河街１７７號",25.056816,121.628247
"F11A4219","祥益塑膠廠有限公司",33887520,"新北市汐止區康寧街４８１號",25.0686279,121.632188
"F11A7867","瑞商實業股份有限公司",86483666,"新北市汐止區新台五路一段９４號２２樓",25.060905,121.648106
"F11A8350","弘雄企業有限公司",84397173,"新北市汐止區環河街１７７號",25.056816,121.628247
"F11A9655","新鈺生技股份有限公司",22357854,"新北市汐止區大同路一段２７６之２號７樓",25.0573333,121.6342953
"F11B2121","保泰共聚有限公司",54156280,"新北市汐止區大同路二段１６５號１樓",25.0640152,121.6512709
"F1301500","昶緣興化學工業股份有限公司",34281486,"新北市土城區永豐路１９５巷１９號",24.9796169,121.473794
"F1302963","立大化成工業股份有限公司",34432512,"新北市土城區民生街１５號",24.9622808,121.4129303
"F1307600","昌桔食品有限公司土城廠",80537594,"新北市土城區民權街１４號",24.9643288,121.4157643
"F1309800","榮美化工實業有限公司",23104013,"新北市土城區永豐路１９５巷７弄４５號",24.979278,121.4709824
"F13A2481","英屬安奎拉商宜析亞洲股份有限公司台灣分公司",28987979,"新北市土城區中興路２４號",24.9667206,121.4264501
"F13A2629","申安化工股份有限公司土城廠",34126008,"新北市土城區中華路一段１２２號",24.9861003,121.4434731
"F13A4833","霖昌能源股份有限公司土城廠",27659013,"新北市土城區福安街１１４號",24.964063,121.4169497
"F13B0125","英屬安奎拉商宜析亞洲股份有限公司台灣分公司中山廠",28987979,"新北市土城區中山路６０號１樓",24.9691571,121.4313424
"F13B0640","英屬安奎拉商宜析亞洲股份有限公司",28987979,"新北市土城區中山路６０號",24.9691571,121.4313424
"F1504109","永塑企業股份有限公司",12525369,"新北市五股區五工三路１２０號",25.0685872,121.4545895
"F15A1116","弘勝光電股份有限公司",24223570,"新北市五股區五工六路５３號、５３號之１",25.0672648,121.4461012
"F15A2817","奕益實業有限公司",89441249,"新北市五股區五權八路３６號１、２、３樓",25.0688705,121.4487446
"F1600491","南亞塑膠工業股份有限公司林口二廠",75370905,"新北市泰山區南林路一○二號【含南林路一○號及八九、九一、九三號(之一至之四)及南泰路３號】",25.0513034,121.4152927
"F16A0896","南亞塑膠工業股份有限公司林口一廠",75370905,"新北市泰山區南林路１２２號",25.0446259,121.4081236
"F17A4388","霖昌能源股份有限公司",27659013,"新北市林口區工九路１４號１樓",25.0754504,121.4027935
"F17B2587","霖昌能源股份有限公司-林口新建工程",27659013,"新北市林口區菁埔段粉寮水尾小段２４之４５地號",25.099044,121.404566
"F18A1389","森三企業有限公司",30875129,"新北市深坑區北深路三段２８６巷４１號４樓",25.007005,121.5969392
"F2103106","台菱樹脂工業股份有限公司三芝廠",37021055,"新北市三芝區大片頭８３之１６號",25.2440339,121.4565882
"F2300463","國泰樹脂工業股份有限公司",35360705,"新北市八里區烏山頭米倉里１之２２號",25.141626,121.44676
"F2304185","台塑石化股份有限公司台北儲運站",86522210,"新北市八里區廈竹圍２０號",25.1553899,121.396734
"G3200527","東?股份有限公司蘇澳總廠",11384405,"宜蘭縣蘇澳鎮新城里新城一路１２０號",24.6165407,121.8197686
"G3200821","昆盟化學工業股份有限公司",42091410,"宜蘭縣蘇澳鎮龍德里德興七路１０號",24.6351345,121.8295047
"G3202272","巨靈霸科技股份有限公司",14093704,"宜蘭縣蘇澳鎮德興三路５號",24.6266502,121.821357
"G3202389","久樺橡膠廠有限公司",34420467,"宜蘭縣蘇澳鎮龍德里德興三路２９號",24.6264439,121.8184579
"G32A0510","昆豐樹脂材料科技股份有限公司",40608410,"宜蘭縣蘇澳鎮龍德里龍祥一路５號",24.6351707,121.8309402
"G32A1261","聯陽氣體工業股份有限公司(利澤工廠)",28346996,"宜蘭縣蘇澳鎮頂寮里頂平路１７號",24.6372172,121.8371842
"G32A3198","聯陽氣體工業股份有限公司",28346996,"宜蘭縣蘇澳鎮德興一路４５號",24.6242672,121.8208355
"G32A3653","台灣石墨烯股份有限公司",24655041,"宜蘭縣蘇澳鎮德興六路６號",24.6313733,121.8261626
"G3702231","品青企業股份有限公司",20982326,"宜蘭縣冬山鄉自強路２０號",24.6324112,121.817919
"G37A0050","品青企業股份有限公司第二廠",20982326,"宜蘭縣冬山鄉自強路２４號",24.632364,121.8173273
"G38A2596","盛弘金屬股份有限公司",53732975,"宜蘭縣五結鄉成興村利工三路１０１號",24.6654073,121.835792
"G38A6944","雙鍵化工股份有限公司-雙鍵化工股份有限公司廠房、附屬辦公室、守衛室、機電設備空間、瓦斯儲藏室、倉庫、危險廠房、廠房設備空間新建工程",84754072,"宜蘭縣五結鄉利工段１８６之４６地號",24.6887633,121.8050125
"G38A7328","雙鍵化工股份有限公司宜蘭廠",84754072,"宜蘭縣五結鄉利工段０１８６之００４６地號",24.6887633,121.8050125
"H4202153","永豐氣體工業股份有限公司桃園廠",24020701,"桃園市桃園區中成里永佳街４３巷４１號",25.0073291,121.2828146
"H4211983","台灣立凱電能科技股份有限公司",27714536,"桃園市桃園區大林里興華路２之１號",24.9800324,121.3233541
"H4295407","台灣杜邦股份有限公司桃園廠",11907311,"桃園市桃園區大林里興邦路４５、４５之１號１樓",24.9793438,121.3270674
"H42A0884","高菖企業股份有限公司",96878506,"桃園市桃園區建國東路１９號",24.9863568,121.3202936
"H42B1611","京和科技股份有限公司",80466562,"桃園市桃園區同安里新埔六街９９號１８樓",25.0147458,121.3021082
"H42B6047","台灣杜邦股份有限公司桃園二廠",11907311,"桃園市桃園區興邦路４５之１號３樓",24.9793438,121.3270674
"H42C4989","京和科技股份有限公司",80466562,"桃園市桃園區中正路１０８０號２１樓",25.0145764,121.2995478
"H4300761","中國熱處理工業股份有限公司",52484907,"桃園市中壢區中壢工業區高邊路３號",24.9891008,121.2402915
"H4302925","大洋塑膠工業股份有限公司中壢廠",15024509,"桃園市中壢區後寮里龍興路５３９號",24.9429014,121.2433626
"H4306665","三橫實業股份有限公司中壢廠",30986119,"桃園市中壢區後寮里龍興路３６２號",24.9401596,121.2421142
"H4306843","僑力化工股份有限公司中壢廠",23991881,"桃園市中壢區東園路３９號",24.9754964,121.2396419
"H4307760","生光化學工業股份有限公司",34008157,"桃園市中壢區松江北路８號",24.988835,121.2488271
"H4311282","玉翔企業股份有限公司",34049018,"桃園市中壢區中福路二段４號",24.9804352,121.2340308
"H4313884","昱鐳光電科技股份有限公司中壢廠",12660131,"桃園市中壢區永光里民權路三段３３４巷５６號１樓",24.9767683,121.2139363
"H43A2172","台灣美格股份有限公司中壢廠",84311324,"桃園市中壢區復興里自強六路３號",24.974378,121.246104
"H43A5978","成加環保科技股份有限公司",28700052,"桃園市中壢區過嶺里福祥路３４６巷１２號",24.97691,121.1758174
"H43A7419","聯銓氣體工業股份有限公司中壢工廠",28350098,"桃園市中壢區內定里松江北路２６號",24.9975161,121.2496579
"H43A7924","佳和桂科技股份有限公司中壢廠",70452890,"桃園市中壢區永福里中園路１９４之１號",24.9850839,121.2382653
"H43A8615","明揚特殊氣體有限公司",86426005,"桃園市中壢區永福里西園路１２２號",24.9790815,121.2343294
"H43A8972","生光化學工業股份有限公司中壢廠",34008157,"桃園市中壢區松江北路８號",24.988835,121.2488271
"H43A9900","日月星科技股份有限公司",80306123,"桃園市中壢區文化里吉林路２０號",24.9790458,121.2435712
"H43B0064","和興鴻業有限公司",25068462,"桃園市中壢區過嶺里福祥路２５９巷６號",24.9760388,121.174464
"H43B3513","高祐精化股份有限公司",27375389,"桃園市中壢區永福里東園路２０號",24.9716321,121.2398889
"H43B3870","群燁實業有限公司中壢廠",15860983,"桃園市中壢區文化里安東路３巷８號",24.982223,121.2408089
"H43B4947","錦泰塑膠有限公司",53612795,"桃園市中壢區內定里合定路２２號",24.987901,121.243563
"H43B5262","高祐精化股份有限公司",27375389,"桃園市中壢區永福里東園路２０號",24.9716321,121.2398889
"H43B5420","康億國際股份有限公司",25033372,"桃園市中壢區山東里山東路２０１號",25.017709,121.171788
"H43B6735","霖昌能源股份有限公司",27659013,"桃園市中壢區北園二路５號",24.986596,121.243467
"H43B7357","富奕達股份有限公司中壢二廠",28700052,"桃園市中壢區過嶺里福祥路３４６巷８號",24.9767714,121.1755575
"H43B9145","台灣美格股份有限公司",84311324,"桃園市中壢區自強六路三號",24.9742812,121.2456784
"H43C9429","家崎科技股份有限公司中壢廠",53878400,"桃園市中壢區永福里東園二路９號１樓、２樓",24.9747075,121.2378196
"H43C9736","昱鐳光電科技股份有限公司",12660131,"桃園市中壢區永光里民權路三段３３４巷５６號１樓",24.9767683,121.2139363
"H43D3171","英屬維京群島商天材創新材料科技股份有限公司台灣分公司",56667104,"桃園市中壢區定安路１號１樓",24.99103,121.241239
"H43D6937","綵翊科技股份有限公司",28501125,"桃園市中壢區元化路２７５之４號２樓",24.962239,121.225688
"H4406937","新科光電材料股份有限公司桃園廠",27366467,"桃園市大溪區仁善里松樹２１之７號、２１之２號",24.9210055,121.287072
"H44A2444","中清開發有限公司",25022229,"桃園市大溪區仁和里仁和路一段３０１、３０３號",24.902341,121.2723975
"H4500743","中興紡織廠股份有限公司楊梅化纖廠",35082604,"桃園市楊梅區大平里中山南路５６７號",24.9041917,121.128778
"H4507626","聯致科技股份有限公司楊梅廠",16742182,"桃園市楊梅區太平里新農街二段２０９巷１６８號",24.916337,121.169763
"H4507724","利基材料科技股份有限公司楊梅廠",97080129,"桃園市楊梅區上田里高平路２０５巷１５號",24.9371814,121.1380416
"H45A1055","綠固科技股份有限公司",12642704,"桃園市楊梅區高榮里電研路１９０巷２０８號",24.9518335,121.1727992
"H45A1570","久資化工科技股份有限公司楊梅廠",28329407,"桃園市楊梅區高山里高獅路６７９號",24.9254836,121.1612998
"H45A1956","佳和桂科技股份有限公司幼獅廠",70452890,"桃園市楊梅區青山里獅四路２號",24.9240188,121.173885
"H45A3754","信昌電子陶瓷股份有限公司楊梅廠",23641338,"桃園市楊梅區高山里高獅路５６６之１號１樓及４樓",24.9256976,121.1586072
"H45A4049","奇奕國際股份有限公司",86534996,"桃園市楊梅區高山里獅五路２、２之１號",24.926194,121.1730349
"H45A5334","富大聯合科技股份有限公司",53141839,"桃園市楊梅區瑞原里民有路一段１９４號",24.9369954,121.1183842
"H45A5532","佳和桂科技股份有限公司",70452890,"桃園市楊梅區青山里獅四路２號",24.9240188,121.173885
"H45A5958","正鑫塑膠有限公司",28539683,"桃園市楊梅區員本里民隆路３９號",24.9349044,121.0997398
"H45A6302","利基材料科技股份有限公司",97080129,"桃園市楊梅區上田里里高平路２０５巷１５號",24.9371814,121.1380416
"H45A6332","正鑫塑膠有限公司楊梅廠",28539683,"桃園市楊梅區三湖里楊湖路三段６４０巷１２６號",24.912583,121.0834094
"H45A7617","靖灃應用材料股份有限公司",53788745,"桃園市楊梅區永平里永平路５０１號",24.9195233,121.175798
"H45A8289","靖灃應用材料股份有限公司",53788745,"桃園市楊梅區三民路二段９６巷１號",24.8851709,121.1712827
"H45A8526","新榮造漆有限公司",27515831,"桃園市楊梅區員本里民隆路１８號",24.9346093,121.1003564
"H45A8556","達邡化工有限公司楊梅廠",20779317,"桃園市楊梅區瑞坪里梅獅路二段５７８巷１６弄１８號",24.8992469,121.181808
"H45A9128","正鑫塑膠有限公司楊梅廠",28539683,"桃園市楊梅區三湖里富元街１２６號",24.9231013,121.0845342
"H45B0173","恆耀能源股份有限公司",54138039,"桃園市楊梅區瑞坪里梅獅路二段４６０號１樓",24.9013809,121.1814144
"H45B0638","信昌電子陶瓷股份有限公司",23641338,"桃園市楊梅區高山里高獅路５６６之１號",24.9256976,121.1586072
"H45B3979","佳和桂科技股份有限公司楊梅廠",70452890,"桃園市楊梅區頭湖里中山南路８００巷９８弄１０號(A棟(１、２樓)、B棟、C棟、D棟、E棟)",24.9005663,121.1083546
"H45B9076","進顯科技股份有限公司",52927467,"桃園市楊梅區上田里和平路１８０巷１４８號",24.9391619,121.1280705
"H4601067","永純化學工業股份有限公司永固成品廠",35108702,"桃園市蘆竹區坑口里１７鄰海山路一段６號",25.1006219,121.2611637
"H4601101","廣明實業股份有限公司",43645121,"桃園市蘆竹區海湖里海山路二段２１１號",25.104536,121.258375
"H4601165","永純化學工業股份有限公司",35108702,"桃園市蘆竹區坑口里海山路６８１號",25.0917357,121.2702148
"H4601218","大洋塑膠工業股份有限公司桃園廠",15024509,"桃園市蘆竹區海湖里２１鄰海湖東路３７５號",25.1065807,121.2713304
"H4601227","義芳化學工業股份有限公司桃園廠",15395706,"桃園市蘆竹區海湖里海湖東路３７７號",25.1081945,121.2662211
"H4601398","南亞塑膠工業股份有限公司錦興廠",75370905,"桃園市蘆竹區長興里南崁路一段３３６號",25.0550155,121.2827437
"H4603178","國泰樹脂工業股份有限公司蘆竹廠",35360705,"桃園市蘆竹區海湖里海山中街９１號",25.100484,121.261337
"H4603436","三福氣體股份有限公司蘆竹廠",11072509,"桃園市蘆竹區海湖里海山中街３８號",25.100484,121.261337
"H4603972","三義化學工業股份有限公司桃園海湖廠",23827741,"桃園市蘆竹區濱海里海山中街８５號",25.1094598,121.2646899
"H4604479","信昌電子陶瓷股份有限公司桃園廠",23641338,"桃園市蘆竹區內厝里南山路二段２２０之１號",25.0663924,121.2869569
"H4606277","聯致科技股份有限公司蘆竹廠",16742182,"桃園市蘆竹區山鼻里南山路二段４９８之２號",25.0740977,121.285432
"H4609134","力信化工股份有限公司",31084047,"桃園市蘆竹區海湖里海湖東路１８７號",25.1020222,121.2663375
"H4640448","雷賽克實業股份有限公司",28330410,"桃園市蘆竹區內厝里內溪路５３之３號",25.0660361,121.2774391
"H4641258","東利達股份有限公司蘆竹廠",84670550,"桃園市蘆竹區內厝里南山路二段２０５巷２２弄７之１號",25.064677,121.285076
"H4641490","群寶科技股份有限公司",80733532,"桃園市蘆竹區長興里南崁路二段２２８巷２７３弄１９、２１號",25.0645873,121.2712157
"H4641669","大洋塑膠工業股份有限公司桃園二廠",15024509,"桃園市蘆竹區海湖里海湖東路３７５號",25.1065807,121.2713304
"H4695194","聯致科技股份有限公司",16742182,"桃園市蘆竹區南山路二段４９８之２號",25.0740977,121.285432
"H46A2523","新中宏橡膠科技股份有限公司",28815857,"桃園市蘆竹區海湖里中圳街１８巷２０號",25.1049454,121.2663819
"H46A2741","東燦科技股份有限公司",29064349,"桃園市蘆竹區坑口里三德街４８號",25.0971706,121.2684371
"H46A3462","盛利威實業有限公司",28333802,"桃園市蘆竹區長興里南崁路二段２２８巷２７７弄９號",25.0652586,121.2716858
"H46A3571","三禧企業有限公司",43860893,"桃園市蘆竹區新興里大竹路１１５號",25.0144429,121.271189
"H46A5725","宏星技研材料股份有限公司蘆竹廠",53092366,"桃園市蘆竹區長興里溪州３４之１７號",25.05755,121.279583
"H46A6585","合意精密股份有限公司",53806841,"桃園市蘆竹區內厝里長興路三段２２９巷６１號及６１號２、３樓",25.0688094,121.2770542
"H46A6842","大洋塑膠工業股份有限公司桃園三廠",15024509,"桃園市蘆竹區海湖里海湖東路三七五號及桃園市海湖里海湖東路２３９巷６６號",25.1065807,121.2713304
"H46A8947","霖昌能源股份有限公司蘆竹二廠",27659013,"桃園市蘆竹區大有街３６號",25.0961171,121.2726174
"H46A9846","霖昌能源股份有限公司",27659013,"桃園市蘆竹區內厝里長興路一段２１９號",25.0649765,121.2912176
"H46B0603","東邑精密陶瓷股份有限公司",54106016,"桃園市蘆竹區水尾段０４００之０００地號",25.062583,121.267561
"H46B3598","台灣創新材料股份有限公司",24851135,"桃園市蘆竹區民權路５０號５樓",25.0363608,121.2996404
"H46B7481","群寶科技股份有限公司海湖廠",80733532,"桃園市蘆竹區海湖里１鄰海山東街３９８號",25.106089,121.265596
"H46B8360","聯創半導體有限公司",55754798,"桃園市蘆竹區內厝里內溪路６８巷３８號",25.0670179,121.2767644
"H46B9140","宏星技研材料股份有限公司",53092366,"桃園市蘆竹區海湖里中圳街１７巷４０號",25.1026104,121.2624882
"H4701017","國聯矽業化學股份有限公司",36550632,"桃園市大園區內海里民權路１２號",25.0759329,121.1833535
"H4701259","新力美科技股份有限公司大園廠",35860547,"桃園市大園區北港里大工路３１號",25.0735535,121.176542
"H4701268","產協企業股份有限公司大園廠",11829913,"桃園市大園區北港里工五路６號",25.0720754,121.1756734
"H4701286","全巨工業股份有限公司大園廠",12296669,"桃園市大園區北港里工四路１５號",25.07261,121.178433
"H4701857","甲基化工有限公司",35923162,"桃園市大園區五權里１０鄰２５之１號",25.0220068,121.2311579
"H4702630","順倉股份有限公司",84710883,"桃園市大園區北港里大工路１３６號",25.0771243,121.1756643
"H4702827","來順股份有限公司",84305884,"桃園市大園區內海里中山北路２８０巷１６號",25.0784284,121.1868572
"H4704107","瑋璿科技股份有限公司大園廠",34342630,"桃園市大園區南港里環區西路２７８號",25.053232,121.16698
"H4704189","台灣吉德門國際股份有限公司",84474305,"桃園市大園區內海里中山北路２６１號",25.0704136,121.1923509
"H4705051","約泰實業股份有限公司大園廠",11489800,"桃園市大園區南港里環區西路２６６巷２６號",25.0532538,121.1662948
"H4705533","清英實業有限公司大園廠",23648162,"桃園市大園區內海里民權路８之１號",25.0781368,121.1853036
"H4707135","新力美科技股份有限公司",35860547,"桃園市大園區大園擴大工業區大工路３１號",25.0735535,121.176542
"H4707715","欣偉科技股份有限公司大園廠",70771944,"桃園市大園區北港里工六路３號",25.0737007,121.1754048
"H4708436","全峰工業股份有限公司桃園廠",22613171,"桃園市大園區北港里工六路６號",25.0735091,121.1754709
"H4708703","永?科技股份有限公司",27420949,"桃園市大園區內海里中山北路２６８巷１５號",25.077679,121.1875759
"H47A0611","欣偉科技股份有限公司二廠",70771944,"桃園市大園區北港里工一路１３號",25.0661296,121.178145
"H47A1481","台灣羅門哈斯化學工業股份有限公司",23928282,"桃園市大園區內海里中山北路２８０巷６號３樓",25.0776892,121.1862206
"H47A2479","雷賽克實業股份有限公司大園廠",28330410,"桃園市大園區北港里大工路４７號",25.0763038,121.1754135
"H47A3962","祥德材料股份有限公司",25098058,"桃園市大園區圳頭里古亭路２６６號",25.0923249,121.1968265
"H47A4881","舜盛貿易有限公司",84357307,"桃園市大園區內海里中山北路２６４號",25.0759186,121.1868579
"H47A5512","欣偉科技股份有限公司三廠",70771944,"桃園市大園區北港里工三路７號",25.0674968,121.1794017
"H47A6144","集盛實業股份有限公司大園廠",43295237,"桃園市大園區北港里大工路１７號",25.068479,121.1790871
"H47A9316","永?科技股份有限公司二廠",27420949,"桃園市大園區北港里工四路１７號",25.072709,121.178823
"H47A9475","欣偉科技股份有限公司",70771944,"桃園市大園區工三路７號",25.0674968,121.1794017
"H47B0945","禎祥實業股份有限公司",34205241,"桃園市大園區北港里工五路２號２樓",25.0711569,121.175867
"H47B1191","台灣吉德門國際股份有限公司大園廠",84474305,"桃園市大園區內海里中山北路２６１號",25.0704136,121.1923509
"H47B3583","忠匯材料股份有限公司",55843217,"桃園市大園區中山北路２６０號",25.0747466,121.1885168
"H4801478","南亞塑膠工業股份有限公司工三廠",75370905,"桃園市龜山區樂善里文明路６號",25.0619923,121.3720035
"H4801852","裕民化學股份有限公司",43751136,"桃園市龜山區龍壽里萬壽路一段５３１巷４號",25.0164874,121.395937
"H4802359","政鎰化學工廠有限公司",43848723,"桃園市龜山區大坑里南上路５１５號",25.0452254,121.3072772
"H4804602","集盛實業股份有限公司龜山廠",43295237,"桃園市龜山區新嶺里東萬壽路６０、６０之１號",25.0007521,121.3650872
"H4806875","集力化學工業股份有限公司",22872520,"桃園市龜山區樂善里水浘８鄰１之１２號",25.0444421,121.3856088
"H4814224","正圭金屬工業有限公司",43742833,"桃園市龜山區龍壽里萬壽路一段５３１巷３號",25.0164038,121.395937
"H48A0498","磐采股份有限公司二廠",16705686,"桃園市龜山區樂善里文明路７２之１號",25.0536922,121.3800806
"H48A5349","山中智林股份有限公司",53407730,"桃園市龜山區文化一路８６之５０號",25.0544114,121.3762641
"H48A8006","集盛實業股份有限公司",43295237,"桃園市龜山區新嶺里東萬壽路６０號",25.0007521,121.3650872
"H48A8442","磐采股份有限公司龜山廠",16705686,"桃園市龜山區樂善里文明三街１２號",25.0529445,121.380449
"H48B1750","亞東工業氣體股份有限公司華亞氣體廠",22522453,"桃園市龜山區文化里華亞五路２號",25.0359966,121.374867
"H4900985","明台化工股份有限公司",43651729,"桃園市八德區竹園里新興路１１４２號",24.9395582,121.2725126
"H4901017","新美華造漆廠股份有限公司",35459404,"桃園市八德區廣德里聯華街３９號",24.9427628,121.2795468
"H4902890","長榮化工業股份有限公司",43124677,"桃園市八德區永豐路３８１號",24.971572,121.274662
"H4908472","利昌電氣工業有限公司電子工業",33858118,"桃園市八德區大湳村和平路９７７號",24.9559996,121.3154464
"H49A9029","新美華造漆廠股份有限公司",35459404,"桃園市八德區聯華街３９號１樓",24.9427628,121.2795468
"H49B3068","合暉股份有限公司",24237758,"桃園市八德區大安里長安街２９之１號１樓",24.9552371,121.3164557
"H49B6359","冠品材料科技股份有公司",53993561,"桃園市八德區茄苳里永豐路２７６巷１４號",24.9680643,121.2768753
"H5000591","台灣杜邦股份有限公司龍潭廠",11907311,"桃園市龍潭區三和里楊銅路二段８０１號",24.8684804,121.1810979
"H5000706","鴻華化學工業股份有限公司",34173634,"桃園市龍潭區中豐路高平段５７６號",24.8284612,121.206212
"H5001338","瑞大鴻科技材料股份有限公司龍潭一廠",84697967,"桃園市龍潭區烏林里工五路１３９巷１號及１之１號",24.8882428,121.2083384
"H5001436","正豐塑膠股份有限公司龍潭廠",33060226,"桃園市龍潭區高原里休閒街８８號",24.8454723,121.2080766
"H5002442","台灣艾特斯工程股份有限公司",23968777,"桃園市龍潭區九龍里中興路九龍段１２９巷１７５弄１５號",24.87835,121.2457432
"H5005210","台灣優芮特股份有限公司龍潭廠",16416519,"桃園市龍潭區烏林里工二路２９８巷８０弄２６之５號",24.8862476,121.21
"H5007027","佳和桂科技股份有限公司烏樹林廠",70452890,"桃園市龍潭區烏林里工二路二九八巷四一號及工二路２９８巷３９弄２２號",24.8862476,121.21
"H5008346","生揚化工原料股份有限公司龍潭廠",16275530,"桃園市龍潭區高平里龍源路６０號１樓",24.8252356,121.2073433
"H50A0670","銡祥實業有限公司龍潭廠",28840482,"桃園市龍潭區高原里楊銅路一段２９４之１號",24.852689,121.197777
"H50A2705","立運特化股份有限公司龍潭廠",16152571,"桃園市龍潭區高平里龍源路４８號",24.8256281,121.2071922
"H50B0706","明創能源股份有限公司(龍潭廠)",69670383,"桃園市龍潭區三和里楊銅路二段９３６號１樓",24.8705649,121.1796297
"H5103319","尚合氟素有限公司平鎮廠",86580822,"桃園市平鎮區東勢里東龍街６１１巷１８號",24.8952759,121.2506453
"H5109919","和新化學工業股份有限公司",97105579,"桃園市平鎮區洪圳路３７６號",24.9054785,121.2499328
"H51A1782","綵翊科技股份有限公司",28501125,"桃園市平鎮區工業一路１４之９號１樓",24.905143,121.204106
"H51A7562","尚合氟素有限公司二廠",86580822,"桃園市平鎮區東勢里東龍街６１１巷２０號",24.8952759,121.2506453
"H51A9469","伯特利企業股份有限公司",54346629,"桃園市平鎮區湧光里工業二路７號",24.9025357,121.2014923
"H51A9588","立盈環保科技股份有限公司",54662717,"桃園市平鎮區湧光里工業二路７號",24.9025357,121.2014923
"H51B1600","星榮科技有限公司",53988321,"桃園市平鎮區平南里天津街２２５號",24.9086184,121.2051998
"H51B2321","三晃股份有限公司平鎮廠",55738290,"桃園市平鎮區東勢里快速路一段２４６巷６２號",24.899213,121.2449008
"H51B4179","達勝科技股份有限公司平鎮二廠",27449349,"桃園市平鎮區湧豐里工業二路２之３號",24.9001249,121.203469
"H51B4268","謙華科技股份有限公司(桃園廠)",28540056,"桃園市平鎮區鎮興里中興路平鎮段４５８號４樓",24.9000923,121.1922896
"H5204660","大銨創新科技股份有限公司桃園廠",12924823,"桃園市新屋區永安里永福路７２０號",24.9859269,121.031169
"H52A1975","大銨創新科技股份有限公司",12924823,"桃園市新屋區永安里永福路７２０號",24.9859269,121.031169
"H52A2933","億昇塑膠有限公司",53032419,"桃園市新屋區新生里和平街４６號１樓",24.971743,121.099618
"H52A3486","華展工業股份有限公司桃園總廠",30883818,"桃園市新屋區笨港里文化路二段１９３８號",24.9821112,121.0269822
"H52A3911","大洋塑膠工業股份有限公司新屋廠",15024509,"桃園市新屋區下埔里下埔頂３８之１號",25.0150285,121.0466579
"H52A4187","大洋塑膠工業股份有限公司",15024509,"桃園市新屋區下埔里下埔頂３８之１號",25.0150285,121.0466579
"H5300078","亞東石化股份有限公司",22318678,"桃園市觀音區樹林里經建四路４７號",25.0641604,121.1263346
"H5300676","福保化學股份有限公司",44877719,"桃園市觀音區富源里新富路９９號",24.9664152,121.148762
"H5300907","台灣亨斯邁化學工業股份有限公司",16968271,"桃園市觀音區樹林里工業三路１９號",25.0630439,121.122371
"H5300925","立大化工股份有限公司",43671990,"桃園市觀音區樹林里經建六路１７號",25.0645364,121.1204355
"H5300934","台界化學工業股份有限公司觀音廠",12213318,"桃園市觀音區草漯里成功路一段５１４號",25.0554274,121.1265585
"H5300998","石梅化學工業股份有限公司",45049886,"桃園市觀音區富林里文林路８８９巷６６號",25.0311992,121.1222974
"H5301753","巨壯企業股份有限公司觀音廠",23182283,"桃園市觀音區草漯里大同二路３９號",25.047537,121.135465
"H5301913","三福氣體股份有限公司觀音一廠",11072509,"桃園市觀音區工業七路１號",25.0494746,121.1090659
"H5302938","立泰化學工業股份有限公司",22938234,"桃園市觀音區樹林里工業九路３３號",25.0428206,121.1076709
"H5303382","接昌工業股份有限公司",11607200,"桃園市觀音區草漯里榮工南路１５號",25.0505088,121.1302513
"H5304003","立松化工股份有限公司",43051350,"桃園市觀音區經建一路３８號",25.0588853,121.1266031
"H5304165","集盛實業股份有限公司第三廠",43295237,"桃園市觀音區草漯里成功路一段５０６號",25.0553662,121.1300981
"H5305171","德鉅企業股份有限公司觀音廠",84243852,"桃園市觀音區草漯里大同二路８號",25.0471407,121.133501
"H5305671","鼎格工業有限公司",22561700,"桃園市觀音區廣興里坑子背１之１９號",25.03659,121.099429
"H5307344","巨壯企業股份有限公司",23182283,"桃園市觀音區大同二路３９號１樓",25.047537,121.135465
"H5307657","台灣氰達工業有限公司",89721282,"桃園市觀音區樹林里工業一路１１、１１之１號",25.067323,121.125744
"H5307693","集盛實業股份有限公司觀音廠",43295237,"桃園市觀音區成功路一段５２２號",25.0551235,121.1243489
"H5307746","常禾菁研科技股份有限公司",70684224,"桃園市觀音區工業一路５號",25.0658878,121.1281207
"H5307835","崇信股份有限公司觀音廠",23147553,"桃園市觀音區觀音工業區經建四路３０號",25.0620726,121.1246413
"H5308154","雙慶化工股份有限公司",16911264,"桃園市觀音區樹林里國光路１０號",25.0593178,121.1047719
"H5308314","永宜股份有限公司觀音廠",22783344,"桃園市觀音區大潭里６鄰大潭１１之１和１１之５號",25.0309647,121.0519663
"H5308609","佳勝科技股份有限公司觀音廠",12961045,"桃園市觀音區樹林里工業一路１０之１號",25.0652831,121.1292851
"H5308627","協承昌股份有限公司觀音廠",16326209,"桃園市觀音區草漯里榮工南路１５之２號",25.0505088,121.1302513
"H5308734","金再昇股份有限公司",16511909,"桃園市觀音區樹林里國建三路７之７號",25.059505,121.1080531
"H5380227","美琪瑪國際股份有限公司觀音廠",86688957,"桃園市觀音區草漯里大同一路１號",25.0538202,121.1271131
"H5380389","協承昌股份有限公司觀音二廠",16326209,"桃園市觀音區草漯里大同二路１３號",25.049668,121.135287
"H5387119","瑞大鴻科技材料股份有限公司觀音二廠",84697967,"桃園市觀音區樹林里工業一路１６號",25.0676959,121.127112
"H5387575","久冠企業有限公司觀音廠",89793004,"桃園市觀音區草漯里榮工北路４號",25.0569209,121.130453
"H5387833","三福氣體股份有限公司觀音二廠",11072509,"桃園市觀音區工業一路１６之１號",25.068395,121.127655
"H5388358","台塑石化股份有限公司桃園儲運站",86522210,"桃園市觀音區白玉里白玉北路１８０１號",25.048785,121.090225
"H5388901","優成興業有限公司",27893236,"桃園市觀音區草漯里大同二路１２之１號",25.0474306,121.1337137
"H5389720","普森環保科技股份有限公司觀音廠",70502054,"桃園市觀音區國建二路３之１、３之２號",25.0573135,121.1122075
"H5389926","名泰化學材料有限公司",79950519,"桃園市觀音區樹林里工業五路７號",25.0544039,121.1168758
"H5395040","亞東綠材股份有限公司觀音廠",54915776,"桃園市觀音區樹林里工業二路１０號",25.064747,121.127689
"H5395111","美琪瑪國際股份有限公司桃園廠",86688957,"桃園市觀音區草漯里大同一路１５號",25.0503255,121.1273401
"H53A0328","新奈材料股份有限公司",28955239,"桃園市觀音區金湖里中山路一段１５６０號１樓",25.0213847,121.1187537
"H53A0675","東和鋼鐵企業股份有限公司桃園廠",75280209,"桃園市觀音區保障里草漯１１６號",25.046948,121.141264
"H53A0922","立光化工股份有限公司觀音廠",27014506,"桃園市觀音區樹林里經建四路５號",25.0589755,121.1158897
"H53A0942","僑力化工股份有限公司觀音廠",23991881,"桃園市觀音區樹林里工業五路１１號",25.0561294,121.1160527
"H53A1326","鴻合環保科技有限公司觀音廠",28945129,"桃園市觀音區大同二路２０號",25.048881,121.13547
"H53A2205","嘉利機科技股份有限公司",25153426,"桃園市觀音區草漯里成功路一段５０９號",25.0550629,121.1294555
"H53A2443","嘉貿光電股份有限公司",53157825,"桃園市觀音區工業二路１６號",25.0664687,121.1264155
"H53A2572","佳勝科技股份有限公司",12961045,"桃園市觀音區樹林里工業一路１０之１號",25.0652831,121.1292851
"H53A2899","欣台化工有限公司",15894766,"桃園市觀音區富林里工業七路１９號",25.0556132,121.1033808
"H53A2998","龍定旺科技股份有限公司觀音廠",53511972,"桃園市觀音區樹林里經建四路１１號１樓及１１之１號",25.0597354,121.1168809
"H53A3273","惠盛實業有限公司",84834907,"桃園市觀音區樹林里經建四路２６號",25.0619634,121.1238769
"H53A3312","美琪瑪國際股份有限公司",86688957,"桃園市觀音區草漯里大同一路１５號",25.0503255,121.1273401
"H53A3580","亞東石化股份有限公司觀音二廠",22318678,"桃園市觀音區工業七路２號",25.0494746,121.1090659
"H53A3758","廣銘化工股份有限公司",53795350,"桃園市觀音區經建三路４８號",25.0611201,121.1251077
"H53A3837","集盛實業股份有限公司-廠房增建工程",43295237,"桃園市觀音區榮工南路２號",25.0547651,121.1303437
"H53A3857","慶毅有限公司觀音一廠",97337016,"桃園市觀音區富源里富源五路１２６巷９０號",24.9921893,121.1292461
"H53A4370","美戶先進材料股份有限公司觀音廠",53566981,"桃園市觀音區草漯里大同一路１號１、２樓",25.0538202,121.1271131
"H53A4528","大研金屬科技股份有限公司",53620845,"桃園市觀音區富源里新富路８５５號",24.9757356,121.1373685
"H53A5150","瑞大鴻科技材料股份有限公司觀音廠",84697967,"桃園市觀音區樹林里國建三路７號",25.061848,121.108077
"H53A5576","亞東綠材股份有限公司觀音二廠",54915776,"桃園市觀音區大潭里環科路１號",25.0341717,121.05577
"H53A6207","集盛實業股份有限公司觀音四廠",43295237,"桃園市觀音區草漯里榮工南路２號",25.0547651,121.1303437
"H53A6227","浩揚國際有限公司觀音廠",28563971,"桃園市觀音區新坡里張厝１３８之１號",25.014346,121.1348689
"H53A6594","立泰化學工業股份有限公司桃科廠",22938234,"桃園市觀音區白玉里桃科九路１９０號",25.0498563,121.0884887
"H53A6653","台灣科慕股份有限公司觀音廠",24548079,"桃園市觀音區成功路二段５６６號",25.0455886,121.1062477
"H53A6782","亞東工業氣體股份有限公司觀音廠",22522453,"桃園市觀音區富林里玉林路二段２２號",25.0584955,121.1026669
"H53A9281","台灣氰達工業有限公司",89721282,"桃園市觀音區工業一路１１之１號",25.067323,121.125744
"H53B0038","佳值化學股份有限公司觀音廠",24532105,"桃園市觀音區樹林里經建四路２之３２號",25.0588856,121.1165006
"H53B0276","久資化工科技股份有限公司桃科廠",28329407,"桃園市觀音區白玉里白玉南路８１８號",25.0515324,121.0896822
"H53B1323","觀音橡膠股份有限公司",69608993,"桃園市觀音區崙坪里崙坪五路２１５巷５９號、６１號",24.9847978,121.1622909
"H53B2331","金匯科技股份有限公司",69759823,"桃園市觀音區樹林里經建四路４３號",25.0621549,121.1237631
"H53B2549","立合科技有限公司",69752997,"桃園市觀音區經建四路４３號",25.0621549,121.1237631
"H53B4238","思特材料股份有限公司觀音廠",54330751,"桃園市觀音區工業二路１６號",25.0664687,121.1264155
"H53B5553","立泰化學工業股份有限公司",22938234,"桃園市觀音區白玉里桃科九路１９０號",25.0498563,121.0884887
"I2610013","順益樹脂股份有限公司",80256637,"嘉義市東區後湖里保義路２４６巷１６號",23.5056646,120.4537925
"J5500508","竹泰化學工業股份有限公司",47105379,"新竹縣竹北市新崙里２９鄰下斗崙３４之３號",24.828477,120.999343
"J5500517","時代化學工業股份有限公司竹北工廠",46329793,"新竹縣竹北市新崙里中華路１巷７９弄６號",24.8273673,120.9935962
"J5500615","瑩光化學股份有限公司",47150486,"新竹縣竹北市泰和里博愛街９５９號",24.8474009,121.0212392
"J5500642","三福氣體股份有限公司竹北廠",11072509,"新竹縣竹北市泰和里泰和路２之１號",24.8462854,121.0078263
"J55B8926","印肯數位股份有限公司",24642623,"新竹縣竹北市泰和里中和街６６號１樓",24.8472194,121.0119221
"J5700302","富全橡膠工業股份有限公司",47025072,"新竹縣新埔鎮五埔里新關路五埔段７３７號",24.8224427,121.0926447
"J5704042","達邁科技股份有限公司",70776899,"新竹縣新埔鎮田新里文德路三段１２７號、１２７之１號、１２７之２號",24.8228794,121.0775471
"J57A2525","達邁科技股份有限公司",70776899,"新竹縣新埔鎮文德路三段１２７號",24.8228794,121.0775471
"J57A2684","王子製藥股份有限公司新埔廠",35048803,"新竹縣新埔鎮下寮里義民路三段１３６巷８號",24.8413365,121.0414577
"J5800861","中國製釉股份有限公司",47056834,"新竹縣竹東鎮頭重里中興路四段１３６號",24.773724,121.0487875
"J5800889","奎帝化學股份有限公司",47304840,"新竹縣竹東鎮頭重里柯湖路一段２０１巷２３３號",24.7751523,121.0311196
"J58A2015","富鑠科技股份有限公司",28651334,"新竹縣竹東鎮民生路９號２樓",24.7665507,121.0473439
"J58A5554","大鐿先端科技股份有限公司",53764722,"新竹縣竹東鎮頭重里中興路四段３７２之３號",24.7756257,121.0498553
"J5901185","裕器工業股份有限公司",12194656,"新竹縣湖口鄉鳳山村新竹工業區文化路２３號",24.8691271,121.0139342
"J5901658","長春人造樹脂廠股份有限公司新竹廠",11384708,"新竹縣湖口鄉鳳山村中華路８號",24.8670404,121.0064248
"J5901676","德亞樹脂股份有限公司",36545738,"新竹縣湖口鄉新竹工業區三民路１５號",24.8685047,120.9998486
"J5901694","華展工業股份有限公司",30883818,"新竹縣湖口鄉鳳山村三民路１號",24.8663499,120.9972706
"J5901738","三皇化工企業股份有限公司",47123432,"新竹縣湖口鄉鳳山村復興路２８號",24.8691134,121.0047716
"J5901916","天弘化學股份有限公司",47104168,"新竹縣湖口鄉鳳山村文化路１１號",24.8657839,121.011408
"J5902093","穩好高分子化學工業股份有限公司",22363292,"新竹縣湖口鄉鳳山村實踐路三五號、光復北路９６號",24.8625872,121.0157079
"J5902600","康普材料科技股份有限公司",86757124,"新竹縣湖口鄉鳳山村文化路一一號?復興路２號?２之１號",24.8660782,121.0103014
"J5902815","惠豐化工廠股份有限公司",33288341,"新竹縣湖口鄉鳳山村復興路６號",24.8665809,121.0095
"J5903438","精密聚合股份有限公司",23929542,"新竹縣湖口鄉勝利村光復南路２０號",24.863315,121.021146
"J5903572","王子製藥股份有限公司新竹廠",35048803,"新竹縣湖口鄉新竹工業區光復南路３２號",24.8615839,121.0201655
"J5904104","南豐工業股份有限公司",47009642,"新竹縣湖口鄉鳳山村大同路１號及１之１號",24.8678646,120.9964385
"J5904533","太洋新技股份有限公司新竹工廠",96972431,"新竹縣湖口鄉鳳凰村光復路６０、６２號",24.8608566,121.0174493
"J5905281","昶緣興化學工業股份有限公司新竹廠",34281486,"新竹縣湖口鄉湖口村祥喜路２０８巷１１號",24.8793717,121.0782617
"J5908568","住電國際電子材料股份有限公司",12641521,"新竹縣湖口鄉鳳山村工業五路１９號",24.858536,121.014466
"J5909074","康普材料科技股份有限公司",86757124,"新竹縣湖口鄉文化路１１號",24.8657839,121.011408
"J5909332","祥德科技股份有限公司(新竹廠)",16175883,"新竹縣湖口鄉鳳凰村四維路２號",24.8650587,121.0238918
"J5990164","太洋新技股份有限公司",96972431,"新竹縣湖口鄉鳳凰村光復路６２號",24.872269,121.0329025
"J59A0866","展宇聚氨酯股份有限公司",28099708,"新竹縣湖口鄉勝利村四維路９號",24.8617179,121.0220571
"J59A3761","碩禾電子材料股份有限公司",80433079,"新竹縣湖口鄉中興村工業一路３號１樓",24.8717943,121.0262117
"J59A3771","宏力生化科技股份有限公司",16759113,"新竹縣湖口鄉鳳凰村光復北路９１號",24.8674279,121.019247
"J59A4204","三福氣體股份有限公司湖口廠",11072509,"新竹縣湖口鄉鳳山村復興路３２號",24.8694792,121.0041875
"J59A4620","台灣盛禧奧股份有限公司新竹廠",25172556,"新竹縣湖口鄉鳳山村仁政路１７號",24.8682137,121.0080911
"J59B1920","歐利得材料科技股份有限公司",54514630,"新竹縣湖口鄉成功路３３５巷２９弄８號１樓",24.89829,121.040085
"J59B2651","添鴻科技股份有限公司",80075256,"新竹縣湖口鄉湖南村光復路４之２號",24.8724806,121.0372412
"J59B2661","明揚特殊氣體有限公司",86426005,"新竹縣湖口鄉鳳山村仁義路１號",24.8668689,121.0127751
"J59B4934","碩禾電子材料股份有限公司新豐廠",80433079,"新竹縣湖口鄉自強路１８號２、３樓(部分使用)",24.8687695,120.9971495
"J59B6049","台灣盛禧奧股份有限公司",25172556,"新竹縣湖口鄉仁政路１７號",24.8682137,121.0080911
"J59B6465","明揚特殊氣體有限公司新竹廠",86426005,"新竹縣湖口鄉鳳山村仁義路１號",24.8668689,121.0127751
"J6100324","啟圓工業股份有限公司新豐廠",22872628,"新竹縣新豐鄉坡頭村坡子頭１８９之２號、１８９之３號、埔頂２４３之１號",24.9228222,120.9780377
"J6104162","台寶樹脂化工股份有限公司新豐廠",86382392,"新竹縣新豐鄉新豐村建興路二段４５２巷１０號",24.8911873,120.9876032
"J61A6076","羽翔生技有限公司",24218730,"新竹縣新豐鄉新豐村紅毛２３之１５號",24.9178943,120.9857543
"J62A0716","和酉有限公司",54235861,"新竹縣芎林鄉華龍村五和街２６８號",24.7416061,121.1348062
"J62A1526","國均企業有限公司-作業廠房新建工程(107)府建字第00190號",22655431,"新竹縣芎林鄉鹿寮坑段２０５地號",24.7385205,121.1308511
"J6300539","聯亞科技股份有限公司一廠",22099456,"新竹縣寶山鄉研新一路１２號",24.7738637,120.9922812
"K6801089","長春石油化學股份有限公司苗栗廠",11384806,"苗栗縣苗栗市福安里福星２４６、２４６之３號",24.5815282,120.825529
"K6801123","長春石油化學股份有限公司苗栗二廠",11384806,"苗栗縣苗栗市文聖里文山２４５號",24.5932899,120.8103573
"K6801132","立豐炭酸股份有限公司苗栗工廠",39035301,"苗栗縣苗栗市福安里福星２３９之５號",24.5815282,120.825529
"K7000504","臺鹽實業股份有限公司通霄精鹽廠",89397503,"苗栗縣通霄鎮內島里１２２號",24.5563774,120.7042625
"K7000960","中國製釉股份有限公司苗栗廠",47056834,"苗栗縣通霄鎮通灣里６５之１８號",24.5136875,120.6920517
"K7106976","景明化工股份有限公司竹南酒廠",50531334,"苗栗縣竹南鎮公義里１１鄰科義街３７號",24.726298,120.909717
"K7107222","上沅科技有限公司",12706452,"苗栗縣竹南鎮崎頂里仁愛路１３５９號",24.7110928,120.8836977
"K7107811","頂豐能源科技股份有限公司",12791788,"苗栗縣竹南鎮崎頂里仁愛路１４３９號",24.7142606,120.8782882
"K71A0461","展旺生命科技股份有限公司",80642673,"苗栗縣竹南鎮科中路２９號",24.7081587,120.9141712
"K71A1805","達輝光電股份有限公司",28230046,"苗栗縣竹南鎮科北二路３號",24.7087866,120.9162891
"K71A1974","鎧暘科技股份有限公司",80485934,"苗栗縣竹南鎮科研路四八號及科東五路１號",24.706986,120.916728
"K71A2962","玖菱科技材料有限公司",53145589,"苗栗縣竹南鎮崎頂里仁愛路１３９７號",24.7120156,120.8812641
"K71A5500","黏合化成股份有限公司",28872771,"苗栗縣竹南鎮大厝里工業路１９６號",24.6756947,120.8805945
"K71A7912","三晃股份有限公司園區分公司",55738290,"苗栗縣竹南鎮科東三路１６號４樓",24.7078061,120.9199042
"K71A8435","三晃股份有限公司竹南廠",55738290,"苗栗縣竹南鎮科東三路２２號１樓",24.7088429,120.9199821
"K71A8574","太麗科技股份有限公司",55886881,"苗栗縣竹南鎮大厝里大厝６０之４號１樓",24.6791474,120.8755039
"K71A8693","亞東工業氣體股份有限公司新竹科學園區分公司竹南廠",22522453,"苗栗縣竹南鎮科學路１６８號",24.7144717,120.9137185
"K71A8792","展旺生命科技股份有限公司竹南二廠",80642673,"苗栗縣竹南鎮科研路２７號",24.7060934,120.9191323
"K71A9928","巨橡環保科技股份有限公司苗栗廠",59684325,"苗栗縣竹南鎮大厝里國泰路２０號",24.6773349,120.8776953
"K71B0418","鎧暘科技股份有限公司",80485934,"苗栗縣竹南鎮科研路４８號",24.7063785,120.9216115
"K7200933","華夏海灣塑膠股份有限公司頭份廠",11686106,"苗栗縣頭份市田寮里民族路５７１號",24.6851949,120.8895629
"K7201412","台達化學工業股份有限公司頭份廠",11893409,"苗栗縣頭份市田寮里民族路５７１號",24.6851949,120.8895629
"K7205081","景明化工股份有限公司",50531334,"苗栗縣頭份市蘆竹里工業路１６號",24.6734321,120.8886382
"K72A2600","佳宜科技股份有限公司",22490564,"苗栗縣頭份市蘆竹里工業路７３號",24.6740006,120.8856182
"K72A4488","康普材料科技股份有限公司頭份廠",86757124,"苗栗縣頭份市蘆竹里中華路４４０號",24.673794,120.8913291
"K72A6375","玖菱科技材料有限公司頭份廠",53145589,"苗栗縣頭份市尖下里南港１之１０號",24.6433387,120.8814975
"K7300849","贔暢複合原料股份有限公司",86530963,"苗栗縣後龍鎮東明里宏陽路９６號",24.6243829,120.7966464
"K7301051","國志實業股份有限公司",23088148,"苗栗縣後龍鎮三好路４１號",24.6227919,120.7788286
"K7700474","科隆工業股份有限公司苗栗廠",23474964,"苗栗縣銅鑼鄉中平村中隆二路２號",24.4961458,120.7987714
"K7701597","串昌科技開發股份有限公司苗栗廠",31296133,"苗栗縣銅鑼鄉中平村瑞興街４號",24.491151,120.798751
"K77A0085","鴻茂環境科技股份有限公司",28915011,"苗栗縣銅鑼鄉銅鑼村民有路２３號",24.4797505,120.7959978
"K77A0649","台灣納美仕股份有限公司",53966585,"苗栗縣銅鑼鄉九湖村銅科一路３號",24.4654923,120.7654088
"K77A1261","科奈傑科技股份有限公司",56296808,"苗栗縣銅鑼鄉中平村中興路８７號及８７之２號１樓、２樓",24.4883434,120.802405
"K8000366","立安東化工股份有限公司三義廠",20939460,"苗栗縣三義鄉鯉魚潭村鯉魚口９９號",24.352206,120.741067
"K80A0311","立安東化工股份有限公司",20939460,"苗栗縣三義鄉鯉魚譚村鯉魚口９９號",24.352206,120.741067
"K8200482","泰森化工工業有限公司",50524137,"苗栗縣造橋鄉朝陽村大湖內３６號",24.6513147,120.8637899
"K82A0282","營澤有限公司苗栗廠",89387081,"苗栗縣造橋鄉大西村尖豐路１９１巷７號",24.6597377,120.8818829
"K82A0311","營澤有限公司",89387081,"苗栗縣造橋鄉大西村尖豐路１９１巷７號１樓",24.6597377,120.8818829
"L0001667","旭銘橡膠興業股份有限公司",55899632,"臺中市烏日區光明里五光路復光６巷３５號",24.1011646,120.6329049
"L0001863","台灣伸和化工股份有限公司台中廠",22879930,"臺中市烏日區前竹里光明路１５７巷５０號",24.096481,120.6455933
"L0054024","意笙企業股份有限公司烏日廠",55877476,"臺中市烏日區光明里五光路復光５巷６８弄３號",24.0986947,120.6337432
"L0054033","意笙企業有限公司",55877476,"臺中市烏日區興祥街１６７巷２０號１樓",24.1095154,120.6368968
"L0100405","台灣日油股份有限公司",22853690,"臺中市大肚區社腳里沙田路一段８５４巷６７之３號",24.1322552,120.5627897
"L0100629","興農股份有限公司王田廠",51911712,"臺中市大肚區中和里南榮路１０１號",24.1122654,120.5810917
"L0100683","台茂奈米生化股份有限公司王田廠",52337390,"臺中市大肚區王田里王福街１號",24.1201077,120.5834263
"L0100736","天弘化學股份有限公司台中分廠",47104168,"臺中市大肚區頂街里沙田路三段２４５巷６８號",24.1652112,120.5378039
"L0100816","三本久實業股份有限公司",55727462,"臺中市大肚區新興里沙田路二段１３２巷６０號",24.1402819,120.5519628
"L0101359","興太化學股份有限公司王田廠",23983502,"臺中市大肚區中和里南榮路１０７號",24.1124372,120.580806
"L0102374","台茂高分子科學股份有限公司",22245063,"臺中市大肚區社腳里沙田路一段８５４巷６７之１號",24.1322552,120.5627897
"L0104645","吉榮樹脂股份有限公司大肚廠",22594147,"臺中市大肚區王田里沙田路一段３２０巷２７號",24.1275663,120.5696443
"L01A0732","聯豐精密科技開發股份有限公司台中工廠",27789748,"臺中市大肚區頂街里沙田路三段２４５巷６６號",24.1650959,120.5391143
"L02A0618","又華股份有限公司龍井廠",56672556,"臺中市龍井區龍津里蚵寮路３２６號",24.2115965,120.5134891
"L02A1814","旭洋實業有限公司",28907259,"臺中市龍井區龍津里蚵寮路２５１巷３０８號",24.208842,120.5071662
"L0300085","甘農股份有限公司",55892878,"臺中市霧峰區五福里五福路５５７號",24.084472,120.654062
"L0300165","欣全實業股份有限公司台中廠",12107371,"臺中市霧峰區坑口里中正路５６１號",24.0462009,120.6921718
"L0300183","宏騏工業股份有限公司",80592548,"臺中市霧峰區萬豐里中正路２５８號",24.0322866,120.6957644
"L0300512","豐洲化工股份有限公司",22078500,"臺中市霧峰區五福里五福路５２８號",24.0828143,120.6556355
"L0400240","英全化學工業股份有限公司",57104700,"臺中市太平區中興里太平路６７６號",24.1269537,120.7109728
"L0401407","三晃股份有限公司太平廠",55738290,"臺中市太平區德隆里華安街２５號",24.1055825,120.7120412
"L0401452","三晃股份有限公司太平分廠",55738290,"臺中市太平區德隆里華安街３號",24.1052924,120.7118962
"L0501813","三晃股份有限公司大里廠",55738290,"臺中市大里區仁化里仁美路１３８號、１５８號",24.1016054,120.7101492
"L0503102","台享塑膠股份有限公司",23863181,"臺中市大里區中興路一段２巷８１弄６１號",24.0818903,120.7018159
"L0506872","現太化工有限公司",97575059,"臺中市大里區大元里大衛路２１號",24.0921009,120.6830936
"L05A4724","神揚工業股份有限公司工廠",24494361,"臺中市大里區大元里大衛路２７之１號",24.092738,120.682161
"L8600617","千雅興業股份有限公司",55841978,"臺中市豐原區鐮村里鐮村路４６５巷８０號",24.2256369,120.727732
"L86A3050","和家慶塑料有限公司",28941138,"臺中市豐原區三角路２１１號",24.2521213,120.7234816
"L8800171","慶泰樹脂化學股份有限公司",35891957,"臺中市大甲區日南里工二路５０號",24.3992905,120.6569791
"L8801123","成名實業股份有限公司",12554672,"臺中市大甲區日南里工五路３號",24.412016,120.646207
"L8803038","元鴻應用材料股份有限公司幼獅廠",22878088,"臺中市大甲區日南里東九街５號",24.4026505,120.6623212
"L9101739","巨菱精密化學股份有限公司",22101811,"臺中市梧棲區中港加工出口區經一路１２號",24.2355326,120.5108159
"L9102110","理盛精密科技股份有限公司",70848710,"臺中市梧棲區緯二路１號",24.2352977,120.5127805
"L9104230","長春石油化學股份有限公司台中港儲運區",11384806,"臺中市梧棲區南堤路三段３００號",24.2820192,120.5081591
"L91A0114","旭貿興業有限公司",13043571,"臺中市梧棲區永安里向上路九段３２２巷２３號１樓",24.2248592,120.5227294
"L91A2001","旭貿興業有限公司",13043571,"臺中市梧棲區永安里向上路九段３２２巷１９號",24.2245961,120.522654
"L91A2437","芊泰橡膠股份有限公司中港分公司",86554232,"臺中市梧棲區草湳里緯六路１７號",24.2445326,120.5113094
"L91A2853","貝民股份有限公司台中港廠",20561107,"臺中市梧棲區草湳里南堤路二段８５號",24.2601809,120.4930802
"L9302647","弘昕股份有限公司",84673590,"臺中市神岡區社南里昌平路五段２３７巷７１號",24.2420505,120.6801007
"L9307213","廣誠化學股份有限公司壹廠",96885703,"臺中市神岡區新庄里溪頭路５８巷８號",24.2819367,120.6553549
"L9403461","邦泰複合材料股份有限公司",52784171,"臺中市潭子區新田里豐興路二段龍興巷２３之６號",24.2160536,120.7294102
"L9406720","台灣御牧股份有限公司潭子廠",89398405,"臺中市潭子區潭秀里中山路三段３７號",24.2214386,120.7063183
"L9505095","禎佶祥實業股份有限公司",96886739,"臺中市大雅區秀山里雅秀路９９號",24.2250644,120.6387468
"L9505773","禎佶祥實業股份有限公司",96886739,"臺中市大雅區雅秀路９９號",24.2250644,120.6387468
"L9506663","聯亞科技股份有限公司中科工廠",22099456,"臺中市大雅區橫山里科雅一路８號",24.2134626,120.6198848
"L9803881","輔德高分子股份有限公司",28101063,"臺中市外埔區永豐里外埔路１６７號",24.3329697,120.7084936
"M3300419","佳欣樹脂股份有限公司",22068550,"南投縣南投市平山里成功一路３１號",23.9257373,120.6670666
"M3300633","鑫永銓股份有限公司工廠",51704734,"南投縣南投市自強三路２１號",23.9261956,120.6659128
"M3300955","台灣陶氏化學股份有限公司南崗廠",21242638,"南投縣南投市新興里工業南一路９號",23.922705,120.661166
"M3300991","樹億興業股份有限公司",97750078,"南投縣南投市永豐里工業東路５、７、９號",23.9278071,120.6626243
"M3301416","豐聖興業股份有限公司",22985340,"南投縣南投市平山里仁和路１５號",23.9179637,120.6775054
"M3301998","日勝化工股份有限公司",23263551,"南投縣南投市新興里工業南二路七、九號、南三路八號、仁和路一四二號、成功三路３３３、３３３之１、３３３之２號",23.9216449,120.6605757
"M3302119","?邦實業股份有限公司二廠",23531297,"南投縣南投市永興里仁和路１５５號",23.91847,120.655288
"M3302182","合和橡膠皮帶加工廠有限公司",61904970,"南投縣南投市自強二路２７號",23.9271761,120.666897
"M3302431","台灣索理思股份有限公司南崗廠",12466782,"南投縣南投市南崗三路２７８號",23.937057,120.665203
"M3302575","高冠企業股份有限公司南投廠",61943713,"南投縣南投市自強三路１、２號",23.921015,120.668873
"M3302691","鴻昇化學企業股份有限公司",22140151,"南投縣南投市永豐里工業北路１５號",23.9282432,120.6558056
"M3302717","全興化工股份有限公司",60247533,"南投縣南投市仁和路２５號",23.9221489,120.6679883
"M3302959","松島企業股份有限公司",61938893,"南投縣南投市永豐里自立三路１５號",23.9328104,120.6619865
"M3303947","天瑛股份有限公司",23197342,"南投縣南投市永豐里工業北路６１號",23.9214896,120.6561732
"M3304417","明高工程股份有限公司南投廠",52207208,"南投縣南投市成功三路１６８號",23.923355,120.659422
"M3305209","禾懋企業股份有限公司",79845778,"南投縣南投市成功三路２１８號",23.9138966,120.6531296
"M3309341","鑫永銓股份有限公司第二廠",51704734,"南投縣南投市南崗三路２９４號",23.9414214,120.66445
"M33A0371","同緯實業股份有限公司",89894621,"南投縣南投市永豐里工業路６３號",23.9306221,120.657593
"M33A0935","彤翊有限公司南投廠",27788924,"南投縣南投市永豐里成功三路１３６號",23.929931,120.665704
"M33A1171","?邦實業股份有限公司",23531297,"南投縣南投市福興里永興路３號",23.9377588,120.6630707
"M33A2119","東琳興業股份有限公司",28924341,"南投縣南投市永豐里工業北路４０號",23.920817,120.655991
"M33A2208","鑫永銓股份有限公司第三廠",51704734,"南投縣南投市福興里南崗三路２９２號",23.9407431,120.664736
"M33A2238","鑫永銓股份有限公司第一廠",51704734,"南投縣南投市福興里南崗三路２９４之２號",23.9414214,120.66445
"M33A3424","肯美特材料科技股份有限公司",28661229,"南投縣南投市平山里南崗三路７號",23.924315,120.6710012
"M33A4907","朝鑫科技股份有限公司南投廠",24405163,"南投縣南投市永豐里工業路３３號",23.9252881,120.661441
"M33A5925","日勝化工股份有限公司",23263551,"南投縣南投市工業南二路７號",23.9201296,120.6619304
"M33A6131","三晃股份有限公司南崗廠",55738290,"南投縣南投市工業北路１６、１６之１、１６之２、１８號",23.9289699,120.6566129
"M33A6171","樹億興業股份有限公司",97750078,"南投縣南投市永豐里工業東路７號",23.9278561,120.662086
"M33A6309","高冠企業股份有限公司",61943713,"南投縣南投市自強三路１號",23.921015,120.668873
"M33A6339","天瑛股份有限公司二廠",23197342,"南投縣南投市永豐里工業北路４０號",23.920817,120.655991
"M33A6408","上緯興業股份有限公司",55902881,"南投縣南投市工業南六路９號",23.916966,120.656136
"M33A7416","?邦實業股份有限公司三廠",23531297,"南投縣南投市永豐里成功三路１９８號",23.9158297,120.6579998
"M33A7624","上緯興業股份有限公司二廠",55902881,"南投縣南投市工業南六路１１號",23.917132,120.655871
"M33A7654","成冠實業有限公司",42961205,"南投縣南投市永豐里成功三路１２４號",23.9314812,120.668999
"M33A7921","?邦實業股份有限公司南崗廠",23531297,"南投縣南投市福興里南崗三路１０１號",23.9417496,120.6640534
"M35A0519","彤翊有限公司",27788924,"南投縣草屯鎮碧峰里碧山路１１５４號",23.971745,120.650903
"M3600825","明高工程股份有限公司竹山廠",52207208,"南投縣竹山鎮前山路二段４０２號",23.7647217,120.6573003
"M3600969","展頌股份有限公司竹山廠",22927617,"南投縣竹山鎮延平里延平二路一九號、延平三路２０號",23.7670436,120.702566
"N0702450","臺灣化學纖維股份有限公司",58650902,"彰化縣彰化市中庄里中山路三段３５９號、臺化莊３５２號",24.0872014,120.5610952
"N0706207","永傑橡膠工業股份有限公司",22711996,"彰化縣彰化市延和里埔內街３７７號",24.0576049,120.537232
"N0720529","大云股份有限公司第二廠",59299723,"彰化縣彰化市田中里河濱路５１８號",24.0961253,120.6031408
"N0727751","順有橡膠股份有限公司",59243432,"彰化縣彰化市大竹里彰南路二段２５４巷１９號",24.0834719,120.5824618
"N07A5194","大云股份有限公司",59299723,"彰化縣彰化市河濱路５１８號",24.0961253,120.6031408
"N07A5510","臺灣化學纖維股份有限公司",58650902,"彰化縣彰化市中庄里中山路三段３５９號",24.0872014,120.5610952
"N07B1298","金優環境科技有限公司",58407718,"彰化縣彰化市莿桐里彰水路１６０之２號",24.0588953,120.5170606
"N0805876","長泓膠業股份有限公司",89587362,"彰化縣鹿港鎮鹿工南三路３８號",24.068837,120.3982252
"N0810813","台塑石化股份有限公司彰濱摻配廠",86522210,"彰化縣鹿港鎮鹿工南三路２號",24.0761752,120.3985365
"N08A1325","廣久工業股份有限公司",16339268,"彰化縣鹿港鎮工業西六路４１號",24.0724939,120.3888751
"N08A2026","興農股份有限公司生物科技廠",51911712,"彰化縣鹿港鎮海埔里鹿工南二路３３號２樓",24.0659761,120.4040455
"N08A2531","帝碩科技股份有限公司",28377239,"彰化縣鹿港鎮東石里工業西六路３７號",24.0725498,120.3901726
"N08A4151","長泓膠業股份有限公司二廠",89587362,"彰化縣鹿港鎮東石里鹿工南三路４０號",24.068443,120.3981511
"N08A4329","華鉬實業股份有限公司彰濱廠",16803770,"彰化縣鹿港鎮東石里工業西一路１９號",24.0600179,120.3912808
"N08A6612","巨燿股份有限公司彰濱廠",12705849,"彰化縣鹿港鎮東石里鹿工路１３號",24.0770072,120.3960821
"N08B0938","宏恩塑膠股份有限公司-彰濱廠",86806053,"彰化縣鹿港鎮工業西七路１號",24.0808476,120.4031746
"N08B1184","長泓膠業股份有限公司三廠",89587362,"彰化縣鹿港鎮東石里工業西五路１１號",24.0704838,120.3996452
"N08B1253","焌貿科技有限公司",54978862,"彰化縣鹿港鎮海埔里鹿工北二路１０號",24.0834537,120.4129201
"N0907866","崧凌股份有限公司",84685786,"彰化縣和美鎮糖友里友東路３號",24.1091739,120.5327822
"N0908774","俊益塑膠商行",93898590,"彰化縣和美鎮雅安路２８６號",24.0996969,120.4826964
"N0910827","大豐環保科技股份有限公司",27590900,"彰化縣和美鎮湖內里工一路７號",24.157912,120.511834
"N09A0827","國慶化學股份有限公司全興廠",55738290,"彰化縣和美鎮湖內里工一路５號",24.1583,120.512461
"N09A3089","三晃股份有限公司全興廠",55738290,"彰化縣和美鎮湖內里工一路５號",24.1583,120.512461
"N1007801","霖昌能源股份有限公司彰化三廠",27659013,"彰化縣北斗鎮新生里興農路一段１６０號",23.8496713,120.5564466
"N1106247","台懋實業股份有限公司",23378569,"彰化縣員林市南東里員草路８５５巷１９２號",23.9697974,120.6107575
"N11A2590","高觀實業有限公司",28967684,"彰化縣員林市中央里中央路４７０號",23.93783,120.5686718
"N11A2837","頂基興業股份有限公司",53290696,"彰化縣員林市中央里柳橋路二段２０７巷８８號",23.9405276,120.5688538
"N11A3924","普裕興業股份有限公司員林廠",22522186,"彰化縣員林市中央里柳橋路二段２０７巷９８號",23.942639,120.5683818
"N12A1389","源隆行",59327832,"彰化縣溪湖鎮汴頭里興農街１０２號１樓",23.9555896,120.4724277
"N1305811","千順塑膠工業股份有限公司田中廠",27580430,"彰化縣田中鎮沙崙里新工五路８號",23.8458456,120.5734165
"N13A0732","優台有限公司",23576879,"彰化縣田中鎮沙崙里新工五路２２號",23.8461334,120.5725661
"N13A0742","霖昌能源股份有限公司彰化廠",27659013,"彰化縣田中鎮沙崙里酪農路７８號",23.844133,120.5718091
"N13A1394","優台有限公司一廠",23576879,"彰化縣田中鎮三光里斗中路二段７１６巷３４５號",23.8748933,120.5573123
"N1501699","鴻勝化學科技股份有限公司彰濱廠",13097528,"彰化縣線西鄉線工南二路３號",24.1281299,120.4296321
"N1501733","百達精密化學股份有限公司",70476582,"彰化縣線西鄉塭仔村彰濱東一路２０號",24.1287845,120.4288046
"N1505179","進尚興業股份有限公司",86659427,"彰化縣線西鄉溝內村線工南二路１２號",24.13131,120.431628
"N1505428","台灣住精科技股份有限公司",27523348,"彰化縣線西鄉線西村彰濱西四路２號",24.1490518,120.4387801
"N1505508","匯春化學工業股份有限公司",27432234,"彰化縣線西鄉頂庄村彰濱東十一路６號",24.1504856,120.4444628
"N15A0405","新力美科技股份有限公司彰濱廠",35860547,"彰化縣線西鄉溝內村線工南二路１８號",24.1345738,120.4334197
"N15A1592","麗群化工股份有限公司",53572999,"彰化縣線西鄉線西村彰濱西四路１６號",24.1504087,120.4364906
"N15A2520","長春石油化學股份有限公司彰濱廠",11384806,"彰化縣線西鄉西興段１９地號",24.1316695,120.4622016
"N15A2530","大連化學工業股份有限公司彰濱廠",12233428,"彰化縣線西鄉西興段４地號",24.1316695,120.4622016
"N15A2550","台灣特品化學股份有限公司",54224077,"彰化縣線西鄉寓埔村彰濱西三路１號",24.14281,120.43346
"N15A2996","承德油脂股份有限公司彰濱廠",22051761,"彰化縣線西鄉線西村線安路５０號",24.1516907,120.438757
"N1601961","國宏股份有限公司",12276447,"彰化縣伸港鄉溪底村工八路８號",24.170924,120.507064
"N1602191","英全化學工業股份有限公司全興廠",57104700,"彰化縣伸港鄉溪底村興工路３３號",24.1590175,120.5103441
"N1603036","東?股份有限公司彰化廠",11384405,"彰化縣伸港鄉溪底村工西一路１之６號、１之８號、２之２號、２之３號",24.1635535,120.5071878
"N1603170","久峰興業股份有限公司",16997255,"彰化縣伸港鄉溪底村工東一路２４號",24.16318,120.511873
"N1606886","台灣東進化成股份有限公司",70640541,"彰化縣伸港鄉蚵寮村線工北一路２１號",24.1550178,120.4510833
"N1607114","興農股份有限公司彰濱廠",51911712,"彰化縣伸港鄉蚵寮村彰濱東一二路３號",24.1566262,120.4500937
"N16A1755","長春人造樹脂廠股份有限公司彰濱廠",11384708,"彰化縣伸港鄉蚵寮村線工北三路３１號",24.1564844,120.4484701
"N16A2971","吉榮樹脂股份有限公司彰濱廠",22594147,"彰化縣伸港鄉蚵寮村線工北一路８號",24.1506274,120.4479702
"N1703148","協呈企業有限公司",86965185,"彰化縣福興鄉番社村番社街５之３６號",24.0218342,120.4577705
"N1708376","耀裕橡膠有限公司",59352135,"彰化縣福興鄉番社村番社街４９之８、４９之９號",24.0258323,120.4503935
"N17A1087","協呈企業有限公司",86965185,"彰化縣福興鄉番社村番社街１７之３號",24.023008,120.4580367
"N17A1097","協呈企業有限公司",86965185,"彰化縣福興鄉番社村番社街１７之３號１樓",24.023008,120.4580367
"N1801603","三立化學股份有限公司",58013405,"彰化縣秀水鄉安東村彰水路一段４２１號",24.0437502,120.5066468
"N1902089","台綸企業股份有限公司",58124211,"彰化縣花壇鄉白沙村田墘巷２號",24.0444665,120.5432444
"N19A1839","樹寶有限公司",12813690,"彰化縣花壇鄉中庄村內厝街２２２巷１０６弄６２、６６號",24.0170916,120.554296
"N19A2431","冠月企業社",19623597,"彰化縣花壇鄉長沙村中正東街２０巷５９號",24.0265903,120.5511795
"N2105315","味特香料企業有限公司",59108745,"彰化縣大村鄉美港路８５巷４１號",23.9803734,120.5726244
"N21A0261","味特生物科技股份有限公司食品添加物廠",28151176,"彰化縣大村鄉大橋村中山路三段９５號",23.995292,120.559928
"N21A0984","味特生物科技股份有限公司",28151176,"彰化縣大村鄉大橋村中山路三段９５號",23.995292,120.559928
"N21A1912","味特生物科技股份有限公司 日化廠",28151176,"彰化縣大村鄉中山路三段９５之１號",23.9951998,120.5593872
"N2202613","伸焌股份有限公司工廠",12705849,"彰化縣埔鹽鄉角樹村員鹿路一段１８０號",23.989301,120.4673361
"N2308656","揚塑企業有限公司",28022053,"彰化縣埔心鄉新?村新?路１０１巷１號",23.9387539,120.5300018
"N2400959","普大應用材料股份有限公司",70500393,"彰化縣永靖鄉五汴村中山路三段１９１號",23.932983,120.554499
"N2402373","弘佳工業股份有限公司",60327901,"彰化縣永靖鄉崙子村九分路５１２號",23.9367157,120.5593206
"N2406497","源陽塑化有限公司",27850118,"彰化縣永靖鄉福興村福中巷７５號",23.9203917,120.5154667
"N2505664","朝揚橡膠工業有限公司工廠",80420428,"彰化縣社頭鄉仁和村山腳路二段７９１巷１６號",23.9126872,120.6072089
"N2800333","順源興橡膠廠",59140864,"彰化縣埤頭鄉斗苑東路５４５號",23.8890729,120.479646
"N2900829","普裕興業股份有限公司",22522186,"彰化縣芳苑鄉草湖村二溪路草二段２７５號",23.9539565,120.380645
"N2901184","宏恩塑膠股份有限公司",86806053,"彰化縣芳苑鄉後寮村工業路２２之１號",23.9165021,120.3526849
"N2902289","驊暐實業股公司二廠",22791132,"彰化縣芳苑鄉後寮村工區四路１６號",23.9136273,120.3495391
"N2907195","翔億股份有限公司",23006694,"彰化縣芳苑鄉後寮村工區路４１號",23.9210511,120.348625
"N2907355","東昇塑膠有限公司",70608599,"彰化縣芳苑鄉芳苑村芳漢路芳二段６６號",23.926485,120.3189558
"N2907971","億豐綜合工業股份有限公司芳苑廠三廠",28696894,"彰化縣芳苑鄉後寮村工區路１９、２１號",23.9122383,120.3467787
"N29A0261","金偉元塑膠工業股份有限公司",12849450,"彰化縣芳苑鄉後寮村工區二路２３號",23.9110684,120.3496789
"N29A1853","宏恩塑膠股份有限公司分廠",86806053,"彰化縣芳苑鄉後寮村工區路３５號",23.9192482,120.3485048
"N29A1863","力麟科技股份有限公司",24973849,"彰化縣芳苑鄉後寮村工業路２７號",23.9186617,120.3536432
"N29A2603","宏恩塑膠股份有限公司二廠",86806053,"彰化縣芳苑鄉後寮村工區路２９號",23.9175411,120.3480331
"N3204700","超鴻科技有限公司",27861157,"彰化縣溪州鄉榮光村大同路８６、８６之１號",23.8200913,120.5722079
"N3205323","超鴻科技有限公司",27861157,"彰化縣溪州鄉榮光村大同路８６之１號",23.8200913,120.5722079
"O1702943","竹新化學股份有限公司",47175607,"新竹市鹽水里中華路六段６７巷３號",24.7488611,120.9093804
"O1702989","正美化工股份有限公司",47146738,"新竹市香山區大湖里五福路一段４５６巷５０號",24.7447806,120.9296798
"O1703020","貝民股份有限公司香山廠",20561107,"新竹市中隘里中華路六段６６８號",24.7272862,120.9175222
"O1708356","向明企業有限公司",47172854,"新竹市東園里八德路７８號",24.804781,120.982677
"O1743793","聯亞科技股份有限公司二廠",22099456,"新竹市東區力行一路１０號",24.7719863,121.016184
"O1746543","有化科技股份有限公司",16736724,"新竹市工業東四路１１號２樓",24.775275,121.007107
"O1746614","聯亞科技股份有限公司三廠",22099456,"新竹市力行四路３號",24.7626979,121.0227272
"O1748921","有化科技股份有限公司二廠",16736724,"新竹市東區工業東四路２４號１樓",24.7749133,121.0070081
"O1751697","有化科技股份有限公司三廠",16736724,"新竹市東區工業東四路１１、１３號１樓",24.775275,121.007107
"O17A1352","聯盛氣體工業股份有限公司",27796071,"新竹市香山區牛埔里牛埔南路２１９號",24.791503,120.931641
"O17A7934","致嘉科技股份有限公司",80340564,"新竹市香山區埔前里牛埔東路３８６號",24.7950281,120.9396907
"O17K1949","謙華科技股份有限公司",28540056,"新竹市工業東四路１０號１、２樓",24.7757784,121.0053303
"O17L9788","捷能材料股份有限公司",24639583,"新竹市東區篤行路６號２樓",24.7711818,121.0246473
"O17M2818","欣盛光電股份有限公司",28895710,"新竹市東區展業一路１號３樓",24.7823134,121.0018705
"O17M3024","光宇生醫科技股份有限公司",56619482,"新竹市東區展業二路２２號３樓",24.7829404,121.0018388
"O17M3985","宏湃企業股份有限公司新竹廠",12981339,"新竹市香山區埔前里中華路四段４０２號",24.7923247,120.9412087
"P4602374","展頌股份有限公司斗六廠",22927617,"雲林縣斗六市榴南里斗工十路１５６號",23.7138482,120.5915075
"P4602534","偉盟工業股份有限公司斗六廠",22457501,"雲林縣斗六市斗工八路１９號",23.716138,120.5957328
"P4602598","永寬化學股份有限公司",16584156,"雲林縣斗六市榴南里斗工六路三六號及四七號、斗工八路３３號",23.7176668,120.5952212
"P4603264","允堡龍實業股份有限公司斗六廠",86095954,"雲林縣斗六市榴南里斗工八路１３號",23.7152344,120.5920248
"P4603406","巨龍化成興業有限公司",23074691,"雲林縣斗六市榴南里斗工六路６３號",23.7179813,120.5996384
"P4606327","艾杰旭顯示玻璃股份有限公司斗六一廠",70584724,"雲林縣斗六市虎溪里科工七路八號、科工八路三七號、科工八路６６號",23.7179785,120.503548
"P4607833","日神企業有限公司斗六廠",84347934,"雲林縣斗六市科工八路３３號",23.7144315,120.5018135
"P46A0693","艾杰旭顯示玻璃股份有限公司斗六二廠",70584724,"雲林縣斗六市虎溪里科工八路８號",23.7232476,120.5150157
"P46A0930","貴美塗料工業有限公司斗六廠",27120801,"雲林縣斗六市虎溪里雲科路三段１０２號",23.7246242,120.5118259
"P46A1582","穗曄實業股份有限公司雲科廠",14076058,"雲林縣斗六市虎溪里雲科路三段９０號",23.7253636,120.5151258
"P46A1592","京和科技股份有限公司雲林廠",80466562,"雲林縣斗六市虎溪里科工八路２１號",23.7154742,120.5032247
"P46A1601","世唯企業有限公司",96885871,"雲林縣斗六市榴南里斗工十六路４３號",23.7104244,120.5993232
"P46A1611","三福氣體股份有限公司雲科廠",11072509,"雲林縣斗六市雲科路三段１０８號",23.7241703,120.5102117
"P46A2887","淯灝桁有限公司雲林廠",84872009,"雲林縣斗六市榴中里復興路６１號",23.7241042,120.5977059
"P46A3083","強榮科技股份有限公司",28485764,"雲林縣斗六市虎溪里科工七路１１號",23.7167343,120.5052382
"P46A4596","展頌股份有限公司斗六原絲廠",22927617,"雲林縣斗六市榴南里斗工十路１５６之１號",23.7138482,120.5915075
"P46A5277","天綾實業有限公司斗六廠",24445524,"雲林縣斗六市榴南里斗工六路２２號",23.7177385,120.5958407
"P46A6344","合記化學股份有限公司",79138401,"雲林縣斗六市溪洲里科加六路２０號",23.7413066,120.5448388
"P46A7124","穗曄實業股份有限公司雲科二廠",14076058,"雲林縣斗六市虎溪里科工十二路７號",23.7141444,120.5067848
"P46A7451","艾杰旭顯示玻璃股份有限公司",70584724,"雲林縣斗六市科工七路８號",23.7179785,120.503548
"P46A8459","億利發實業有限公司",54548815,"雲林縣斗六市榴南里斗工八路１９號",23.716138,120.5957328
"P46A9734","高觀實業有限公司二廠",28967684,"雲林縣斗六市榴中里斗工二路１７號",23.7194906,120.5920429
"P46A9754","承德油脂股份有限公司",22051761,"雲林縣斗六市榴南里斗工六路１２之１號",23.717617,120.59387
"P46B1222","信越電子材料股份有限公司",54396084,"雲林縣斗六市長安里科加六路２８號",23.7402151,120.5397606
"P46B3020","展頌股份有限公司斗三廠",22927617,"雲林縣斗六市榴北里科班路１２號",23.7329365,120.5676076
"P4701685","順華塑膠企業股份有限公司",16500614,"雲林縣莿桐鄉甘西村中村２號",23.7483219,120.4955244
"P4704784","利強環保科技有限公司",80488340,"雲林縣斗南鎮林子里大同莊１２號",23.6580053,120.4838701
"P4802883","台灣捷時雅邁科股份有限公司",12800739,"雲林縣虎尾鎮科虎一路１１號",23.7389015,120.4039218
"P48A4982","王子製藥股份有限公司中科廠",35048803,"雲林縣虎尾鎮中科段２１之１地號",23.7357657,120.3959605
"P4901229","營光興業股份有限公司",23938789,"雲林縣西螺鎮福田里社口路６８之３８號",23.7884044,120.4387593
"P5006090","金洋塑膠有限公司",53296946,"雲林縣土庫鎮興新里下圍１８號",23.6701899,120.3752008
"P5400267","信嘉化學工業有限公司",64972402,"雲林縣莿桐鄉埔仔村埔仔１４８之２號",23.7613757,120.5067161
"P5801513","南亞塑膠工業股份有限公司麥寮總廠",75370905,"雲林縣麥寮鄉中興村台塑工業園區２號",23.787653,120.191616
"P5801602","台灣塑膠工業股份有限公司麥寮廠",75708007,"雲林縣麥寮鄉中興村台塑工業園區１號",23.787653,120.191616
"P5801728","台塑石化股份有限公司麥寮二廠",86522210,"雲林縣麥寮鄉中興村台塑工業園區８號、８之５號",23.797456,120.231239
"P5801773","台灣化學纖維股份有限公司麥寮廠",58650902,"雲林縣麥寮鄉中興村台塑工業園區５號及３之１號",23.797456,120.231239
"P5802001","台灣塑膠工業股份有限公司麥寮碳纖廠",75708007,"雲林縣麥寮鄉中興村台塑工業園區１３號",23.797456,120.231239
"P5802002","台灣塑膠工業股份有限公司麥寮檢驗中心",75708007,"雲林縣麥寮鄉中興村台塑工業園區１號",23.787653,120.191616
"P5802092","台灣化學纖維股份有限公司海豐廠",58650902,"雲林縣麥寮鄉中興村台塑工業園區２３號",23.797456,120.231239
"P5802323","南中石化工業股份有限公司乙二醇廠",97161348,"雲林縣麥寮鄉中興村台塑工業園區２之１號",23.787653,120.191616
"P5802378","台塑旭彈性纖維股份有限公司麥寮廠",16446128,"雲林縣麥寮鄉中興村台塑工業園區１２號",23.797456,120.231239
"P5802387","大連化學工業股份有限公司麥寮廠",12233428,"雲林縣麥寮鄉中興村台塑工業園區２５號",23.797456,120.231239
"P5802421","台塑石化股份有限公司麥寮一廠",86522210,"雲林縣麥寮鄉台塑工業園區７號、１５號",23.798441,120.2176183
"P5802430","台塑石化股份有限公司麥寮三廠",86522210,"雲林縣麥寮鄉台塑工業園區１７號、３９號",23.7764697,120.1875044
"P5805146","台塑石化股份有限公司",86522210,"雲林縣麥寮鄉中興村台塑工業園區１號之１",23.787653,120.191616
"P5805244","南亞塑膠工業股份有限公司海豐總廠",75370905,"雲林縣麥寮鄉中興村台塑工業園區４２號、４７號、５２號",23.797456,120.231239
"P5805271","長春人造樹脂廠股份有限公司  麥寮廠",11384708,"雲林縣麥寮鄉中興村台塑工業園區２７號",23.797456,120.231239
"P5805753","長春石油化學股份有限公司麥寮廠",11384806,"雲林縣麥寮鄉中興村台塑工業園區２６號",23.797456,120.231239
"P5805780","台灣醋酸化學股份有限公司醋酸廠",80087041,"雲林縣麥寮鄉中興村台塑工業園區５號及５之５號",23.797456,120.231239
"P5806349","台灣塑膠工業股份有限公司海豐廠",75708007,"雲林縣麥寮鄉中興村台塑工業園區２３之１號、３２號、３３號",23.797456,120.231239
"P58A0904","南中石化工業股份有限公司",97161348,"雲林縣麥寮鄉中興村台塑工業園區２之１號",23.787653,120.191616
"P58A0974","台灣醋酸化學股份有限公司",80087041,"雲林縣麥寮鄉中興村台塑工業園區１號之１",23.787653,120.191616
"P58A1635","台塑科騰化學有限公司",53667030,"雲林縣麥寮鄉中興村台塑工業園區１７號",23.797456,120.231239
"P58A2396","台塑科騰化學有限公司",53667030,"雲林縣麥寮鄉中興村台塑工業園區１之１號",23.787653,120.191616
"P58A2425","台塑出光特用化學品股份有限公司",42767461,"雲林縣麥寮鄉中興村台塑工業園區１５號",23.797456,120.231239
"P58A3809","台塑出光特用化學品股份有限公司",42767461,"雲林縣麥寮鄉六輕段１３２地號",23.798441,120.2176183
"P58A4134","麥寮海水淡化廠新建工程",86522210,"雲林縣麥寮鄉台塑工業園區７、１５號",23.787653,120.191616
"P6000029","三勝橡膠股份有限公司",64956183,"雲林縣褒忠鄉中民村中正路２號",23.6989789,120.3272768
"P64A0156","協發塑膠袋加工廠",63715601,"雲林縣口湖鄉湖東村中正路一段１９６號",23.5841671,120.1833455
"Q6600095","星一興業股份有限公司",66590301,"嘉義縣朴子市竹村里朴子工業區二街一二號、橫二街１１號",23.4382674,120.2472273
"Q6600960","星一興業股份有限公司二廠",66590301,"嘉義縣朴子市竹村里朴子工業區二街１１、１３號",23.4384504,120.2491025
"Q68A0614","台灣日邦樹脂股份有限公司大埔美廠",22102213,"嘉義縣大林鎮中坑里大埔美園區一八路３號",23.5980943,120.5139617
"Q68A4468","環綺國際貿易股份有限公司-環綺國際貿易股份有限公司廠房新建工程",23339709,"嘉義縣大林鎮大工一段６地號",23.6040709,120.4542004
"Q6900027","台灣新日化股份有限公司嘉義廠",23527245,"嘉義縣民雄鄉北斗村中正路４５號",23.5180957,120.4507554
"Q6901499","台灣日邦樹脂股份有限公司",22102213,"嘉義縣民雄鄉北斗村中正路１３號",23.5203873,120.4594898
"Q6901720","台灣羅門哈斯化學工業股份有限公司民雄廠",23928282,"嘉義縣民雄鄉北斗村民雄工業區中興一街１號",23.5180205,120.4554775
"Q6903322","樺正實業股份有限公司",97210018,"嘉義縣民雄鄉北斗村民雄工業區中正路６號",23.5213551,120.4613368
"Q6907446","品宗化工工業股份有限公司",22492922,"嘉義縣民雄鄉北斗村成功街４５之１號",23.5224649,120.4594526
"Q6907713","嘉展企業股份有限公司",86265134,"嘉義縣民雄鄉北斗村成功街３０號",23.5213554,120.4561808
"Q6909002","竣利企業有限公司",27608774,"嘉義縣民雄鄉北斗村成功二街４２號",23.524538,120.457495
"Q69A4097","泰威興業股份有限公司一廠",22983624,"嘉義縣民雄鄉福樂村中山路３６之１號",23.5273423,120.4543235
"Q69A5421","德懋塑膠企業有限公司",16238917,"嘉義縣民雄鄉工業五路４號",23.5194827,120.4339109
"Q69A7209","新鈺生技股份有限公司二廠",22357854,"嘉義縣民雄鄉北斗村成功二街３號",23.5237885,120.4541576
"Q69A7566","頂級複合材料股份有限公司",53130100,"嘉義縣民雄鄉福樂村成功五街２之１號",23.522854,120.4499013
"Q7400615","鋅安工業股份有限公司",23578031,"嘉義縣義竹鄉龍蛟村義工二路１７、１５、１３、１１號",23.3602758,120.2212321
"Q74A0094","欣冠興業有限公司",25024660,"嘉義縣義竹鄉龍蛟村義工三路９號",23.3604726,120.2199702
"Q74A0123","新弘科技股份有限公司",25008373,"嘉義縣義竹鄉龍蛟村義工三路６號之１及６號之２",23.3594283,120.2190037
"Q74A0539","鋅安工業股份有限公司(二廠)",23578031,"嘉義縣義竹鄉龍蛟村義工三路１４號",23.36063,120.2203479
"Q7600900","宏忠實業有限公司",66563091,"嘉義縣太保市過溝里嘉太工業區和順路２號",23.5070424,120.3555325
"Q7600919","穎興化學工業有限公司",66329814,"嘉義縣太保市南新里中山路一段３１３號",23.4984061,120.3776652
"Q7600964","三元化工股份有限公司",65006251,"嘉義縣太保市過溝里嘉太工業區光復路３４號",23.5060113,120.3550243
"Q7600973","金良有限公司",22589453,"嘉義縣太保市麻寮里１７鄰北港路二段４０１號",23.4984381,120.3706223
"Q7604480","嘉良特化股份有限公司嘉義廠",70676075,"嘉義縣太保市過溝里嘉太工業區興業路８號",23.5101454,120.3583406
"Q76A1824","宏銘油脂股份有限公司",54773208,"嘉義縣太保市過溝里嘉太工業區嘉太路７號",23.5075186,120.3620995
"Q7701411","佑華橡膠工業有限公司",23685659,"嘉義縣水上鄉大崙村１４３號",23.4472754,120.3590252
"R0304328","台灣明尼蘇達光電股份有限公司台南廠",13111388,"臺南市新市區環東路一段３１２號",23.1000361,120.2856783
"R0304944","艾杰旭顯示玻璃股份有限公司台南廠",70584724,"臺南市新市區豐華里風鈴路１號",23.0963765,120.2595909
"R03A0608","奇美實業股份有限公司樹谷廠",68387705,"臺南市新市區豐華里王甲路１８號",23.101677,120.256469
"R03A2129","展旺生命科技股份有限公司南科分公司針劑廠",80642673,"臺南市新市區創業路１２號４樓、１６號４樓",23.0980061,120.2840844
"R0400138","永捷創新科技股份有限公司",86123874,"臺南市安定區安加里安定２５８之２６號",23.110441,120.237534
"R0400549","宏昱股份有限公司",74702499,"臺南市安定區安加里２５８之１１號",23.1102654,120.2365575
"R0400996","弘美企業股份有限公司",72144012,"臺南市安定區中沙里中崙１５７號",23.0788999,120.2103832
"R0500179","產協企業股份有限公司台南廠",11829913,"臺南市山上區明和里北勢洲８７號",23.1131616,120.3388917
"R0500400","東展興業股份有限公司",22956176,"臺南市山上區明和里北勢洲９８號",23.1127899,120.3387346
"R1000203","元一實業股份有限公司",72050149,"臺南市仁德區二行里二仁路一段１９３號",22.9212933,120.2245961
"R1000212","穎昌實業股份有限公司",73376849,"臺南市仁德區二行里二仁路一段３１５巷５７號",22.9236743,120.2216071
"R1000365","藝展實業有限公司",72062807,"臺南市仁德區保安里保安路一段３７號",22.9265112,120.2263043
"R1000534","成功化學工業股份有限公司",68279001,"臺南市仁德區新田里義林路１３６號",22.9472553,120.2511778
"R1000785","元晃合成樹脂有限公司",22932750,"臺南市仁德區一甲里忠義二街３６巷１６號",22.9784308,120.2569347
"R1001764","英利五金實業股份有限公司",72060548,"臺南市仁德區保安里保安路一段７０號",22.9259591,120.2262327
"R1002065","奇美實業股份有限公司",68387705,"臺南市仁德區文賢里３甲子５９之１號A棟、５９之４號",22.9272817,120.2431624
"R1002207","衍南壓克力股份有限公司",22286423,"臺南市仁德區保安里開發四路３７號",22.9251059,120.2512488
"R1003848","正聚實業股份有限公司仁德廠",86961441,"臺南市仁德區保安里永德路３３之１號",22.9199214,120.2455318
"R10A1348","奇美實業股份有限公司",68387705,"臺南市仁德區文賢里３甲子５９之１號",22.9272817,120.2431624
"R10A3047","奇美實業股份有限公司旭美廠",68387705,"臺南市仁德區保安里開發四路３６號",22.9250672,120.251321
"R10A3374","典銘實業有限公司",80596066,"臺南市仁德區保安里開發三路１７號",22.9230625,120.2470384
"R10A3473","光盛橡膠有限公司",80645545,"臺南市仁德區仁義里勝利路７２之１號",22.9584441,120.2556168
"R1100440","三星科技股份有限公司",68040606,"臺南市歸仁區南興里中山路三段３５５、３５５之８、之１３、之１２號A棟",22.9682873,120.2790415
"R1104402","三星科技股份有限公司南興廠",68040606,"臺南市歸仁區中山路三段３５５之１號",22.9682873,120.2790415
"R11A0137","三星科技股份有限公司南興二廠",68040606,"臺南市歸仁區南興里中山路三段３５５之１２號B棟",22.9682873,120.2790415
"R1401488","東亞合成樹脂股份有限公司",72056278,"臺南市永康區甲頂里中正南路２８１號",23.0263652,120.220958
"R1407195","秋雨塑膠廠",8453032,"臺南市永康區蔦松里正北三路９１巷１３號",23.048778,120.262281
"R1407408","永琦實業社",8476324,"臺南市永康區甲頂里中正南路２７４巷３８弄８號",23.0290479,120.2243689
"R1415731","一心實業廠有限公司",86978822,"臺南市永康區新樹里中山北路７６２巷９號",23.0297661,120.280183
"R14A4619","協承昌股份有限公司永康貳廠",16326209,"臺南市永康區王行里經華路２１之１號",23.046294,120.271438
"R8401520","尚亞企業股份有限公司",23573325,"臺南市新營區嘉芳里四維路４號",23.307546,120.2811095
"R8700822","建宗化學工業股份有限公司",22773182,"臺南市麻豆區麻口里麻豆口３２之５號",23.181381,120.220157
"R8704062","永捷創新科技股份有限公司麻豆廠",86123874,"臺南市麻豆區寮?里寮子?５之２１號",23.1873412,120.2844594
"R8800489","佳寶樹脂股份有限公司",74709866,"臺南市佳里區海澄里萊芊寮１之８號",23.1796232,120.1742702
"R8800532","華寶樹脂化學工廠股份有限公司",74720139,"臺南市佳里區海澄里萊芊寮１之１７號",23.1796232,120.1742702
"R8800809","強新工業股份有限公司",84703335,"臺南市佳里區海澄里萊芊寮１２之１９號",23.1796232,120.1742702
"R8800961","彥泰企業股份有限公司",74709752,"臺南市佳里區海澄里萊芊寮１２之６號",23.1796232,120.1742702
"R8804165","鉅橡企業股份有限公司佳里廠",96865657,"臺南市佳里區海澄里萊芊寮１２之１８、１２之２７、１２之２９號",23.1796232,120.1742702
"R8804352","強新工業股份有限公司佳里二廠",84703335,"臺南市佳里區海澄里萊芊寮１之２５號",23.1796232,120.1742702
"R88A0368","強新工業股份有限公司佳里三廠",84703335,"臺南市佳里區海澄里萊芊寮１２之２２、１２之２３、１２之２５號",23.1796232,120.1742702
"R88A1148","鉅橡企業股份有限公司",96865657,"臺南市佳里區海澄里萊芊寮１２之２７號",23.1796232,120.1742702
"R8900331","啟盟工業股份有限公司",72051870,"臺南市新化區大德路７６號",23.0446088,120.3014879
"R8900475","新力美科技股份有限公司新化廠",35860547,"臺南市新化區那拔里那拔林１號及新化區那拔里牧場７２之８號",23.068485,120.3493731
"R8903510","成榕顏料科技股份有限公司",97586507,"臺南市新化區北勢里中正路１０７５號",23.0529124,120.2998952
"R9000349","允成化學工業股份有限公司",71047701,"臺南市善化區光文里光文路１９號",23.1340187,120.3058659
"R9000394","三福化工股份有限公司善化廠",80170651,"臺南市善化區小新里小新營３４０號",23.1219149,120.318951
"R9000465","佳大建材工業股份有限公司",72016282,"臺南市善化區光文里北子店６１１號",23.1428805,120.3114029
"R9001560","台灣神隆股份有限公司南科廠",16130161,"臺南市善化區南科八路１號",23.1162998,120.2804399
"R9001631","三福氣體股份有限公司南科廠",11072509,"臺南市善化區胡厝里興農路７７２號乙廠、臺南市安定區蘇林里蘇厝１之４８號",23.128189,120.2617339
"R90A0401","誠美材料科技股份有限公司",27790294,"臺南市善化區南關里木柵港西路１３號",23.106012,120.2581766
"R90A0689","住華科技股份有限公司南科一廠",70848177,"臺南市善化區環東路二段３２號(除１樓B、C區、２樓B、C區及３樓C區)",23.1232505,120.2743524
"R90A1073","台灣神隆股份有限公司",16130161,"臺南市善化區南科八路１號",23.1162998,120.2804399
"R9103676","達塑工程股份有限公司",89422051,"臺南市學甲區新達里大順路１２１號",23.2381897,120.1921369
"R9200107","台昌樹脂企業股份有限公司",72006931,"臺南市柳營區光福里柳營路一段３０２巷１０８號",23.2643903,120.3152804
"R9395183","達瑩企業股份有限公司後壁廠",55710173,"臺南市後壁區菁豊里崩埤１之６２號",23.3827573,120.3677422
"R9700344","欣可化工股份有限公司官田廠",72198121,"臺南市官田區二鎮里工業西路２５、２７號",23.2079065,120.3204014
"R9700844","誼鑫科技實業股份有限公司",22567970,"臺南市官田區二鎮里成功街６１號",23.2107283,120.3310475
"R9700871","加合樹脂企業股份有限公司",72203519,"臺南市官田區二鎮里建業路２９、３３號",23.2098223,120.3272946
"R9701047","欣岱實業股份有限公司",69774583,"臺南市官田區二鎮里工業西路３３號",23.2096089,120.320201
"R9702133","宸項企業股份有限公司官田廠",23363931,"臺南市官田區二鎮里富強路５７號",23.2058818,120.3195418
"R9900246","南寶樹脂化學工廠股份有限公司",74229304,"臺南市西港區南海里南海埔１２號",23.1176058,120.198157
"R9900282","南寶樹脂化學工廠股份有限公司寶立廠",74229304,"臺南市西港區西港里中山路５０８、５１０號",23.1361174,120.1976458
"R9900291","南寶樹脂化學工廠股份有限公司(第三廠)",74229304,"臺南市西港區西港里中山路４９１號",23.1307924,120.2005814
"R9900308","南寶樹脂化學工廠股份有限公司第五廠",74229304,"臺南市西港區西港里中山路５０６號",23.1320105,120.2003131
"R9900586","南寶樹脂化學工廠股份有限公司第一廠",74229304,"臺南市西港區慶安里中山路５２１號",23.1321178,120.2002632
"S1503944","弘偉塑膠股份有限公司",85949259,"高雄市鳳山區鳳仁路北平路１１７號",22.6369902,120.3675537
"S1503980","東豐塑膠企業行",7869624,"高雄市鳳山區鳳仁２４８巷３號",22.6377646,120.3760731
"S1603770","毅豐橡膠工業股份有限公司",85710002,"高雄市岡山區嘉興里嘉興路２９１號",22.8220577,120.3045523
"S1603789","毅豐橡膠工業股份有限公司二廠",85710002,"高雄市岡山區灣裡里岡山北路３號",22.8063019,120.2865161
"S1666928","錦德氣體股份有限公司",23073692,"高雄市岡山區本洲里本工五路１５號",22.8123792,120.2657668
"S16A0214","虹京資源股份有限公司",27992242,"高雄市岡山區本工東二路８號",22.8120106,120.2744249
"S16A1212","金典油炭科技股份有限公司",28077296,"高雄市岡山區本洲里本工三路６號",22.8097009,120.2744582
"S16A2260","新龍光塑料股份有限公司",28715554,"高雄市岡山區本洲里本工西二路３號",22.8088807,120.2656092
"S1900372","台灣氯乙烯工業股份有限公司林園廠",19084015,"高雄市林園區溪州里工業一路１號",22.5104323,120.404652
"S1900578","東聯化學股份有限公司高雄林園廠",14057995,"高雄市林園區工業三路３、５號",22.4922332,120.4158333
"S1900596","亞洲聚合股份有限公司林園廠",20747385,"高雄市林園區工業一路３號",22.5021787,120.4065132
"S1900630","台達化學工業股份有限公司林園廠",11893409,"高雄市林園區工業一路５號",22.5050155,120.4061952
"S1900658","台灣苯乙烯工業股份有限公司高雄廠",20844865,"高雄市林園區溪州里工業一路７號",22.5050074,120.4058909
"S1900676","李長榮化學工業股份有限公司林園廠",39054405,"高雄市林園區北汕里石化三路１１號",22.4878329,120.4137593
"S1900685","台灣塑膠工業股份有限公司林園廠",75708007,"高雄市林園區溪州里石化一路１號",22.507705,120.412675
"S1900694","台灣石化合成股份有限公司林園廠",30974253,"高雄市林園區工業二路１號",22.4985559,120.4144628
"S1900701","台灣塑膠工業股份有限公司林園聚丙烯廠",75708007,"高雄市林園區溪州里石化一路一之一號、工業一路１６號",22.507705,120.412675
"S1901002","合興石化工業股份有限公司林園廠",23531178,"高雄市林園區溪州里石化二路２號",22.4985886,120.4077156
"S1901262","南亞塑膠工業股份有限公司林園二廠",75370905,"高雄市林園區溪州里工業一路６號",22.5032669,120.4061979
"S19A0912","桐寶股份有限公司林園廠",22639691,"高雄市林園區北汕里石化三路１之２號",22.4878038,120.4160535
"S2000335","大軒化工股份有限公司",22220464,"高雄市大寮區大有一街２１號",22.588556,120.4269941
"S2000424","台灣寶理塑膠股份有限公司大發廠",22853994,"高雄市大寮區潮寮里建業路１３號",22.5709802,120.4270353
"S2001314","長春石油化學股份有限公司大發廠",11384806,"高雄市大寮區潮寮里建業路１１號",22.5711028,120.4276914
"S2001743","愛美愛塗料股份有限公司",81040811,"高雄市大寮區江山里鳳屏二路３５號",22.6402191,120.4043246
"S2002062","長興材料工業股份有限公司大發廠",75339004,"高雄市大寮區大寮里裕民街３０號",22.5900866,120.435558
"S2002179","太洋化成股份有限公司",20901577,"高雄市大寮區大寮里華中路４２號",22.584481,120.4011911
"S2002204","大東樹脂化學股份有限公司高雄大發廠",51008069,"高雄市大寮區潮寮里光華路９號",22.5826765,120.4268858
"S2005081","長春人造樹脂廠股份有限公司大發廠",11384708,"高雄市大寮區過溪里華西路８號",22.574971,120.4228903
"S2005652","大連化學工業股份有限公司大發廠",12233428,"高雄市大寮區過溪里華西路８之１號",22.574971,120.4228903
"S2010073","日昇橡膠廠股份有限公司",75060824,"高雄市大寮區興業路３５號",22.5905108,120.4246477
"S2011276","台灣寶理塑膠股份有限公司大發二廠",22853994,"高雄市大寮區潮寮里建業路１３之１號",22.5709802,120.4270353
"S2012175","長春人造樹脂廠股份有限公司",11384708,"高雄市大寮區華西路８號",22.574971,120.4228903
"S2015916","長春人造樹脂廠股份有限公司大發二廠",11384708,"高雄市大寮區過溪里華西路６號",22.5730576,120.4228834
"S20A0852","德豐國際科技股份有限公司",27675668,"高雄市大寮區大寮里大有三街１２號",22.5863005,120.4267912
"S20A3688","原塑實業股份有限公司高雄廠",84075861,"高雄市大寮區大寮里大業街３９號",22.5881053,120.4304591
"S20A3876","昭侒化工有限公司大發廠",28584384,"高雄市大寮區大寮里華西路３８之１號１樓",22.5878692,120.4231181
"S20A3905","德豐國際科技股份有限公司二廠",27675668,"高雄市大寮區大寮里興業路４號",22.5903946,120.4346743
"S2200826","榮?化學工業股份有限公司",81152934,"高雄市仁武區後安里永宏巷１６號",22.7167397,120.3432536
"S2201047","高福化學工業股份有限公司高雄工廠",75415298,"高雄市仁武區竹後里鳳仁路３８５號",22.7155617,120.3356817
"S2201065","大立高分子工業股份有限公司",85004174,"高雄市仁武區後安里永宏巷１０號",22.714882,120.3397516
"S2201092","長春人造樹脂廠股份有限公司高雄廠",11384708,"高雄市仁武區工業一路８、１２、１４號",22.701244,120.3431156
"S2201109","台灣塑膠工業股份有限公司仁武廠",75708007,"高雄市仁武區竹後里水管路１００號",22.7059261,120.3350318
"S2201118","南亞塑膠工業股份有限公司仁武廠",75370905,"高雄市仁武區竹後里水管路１０１號",22.7066992,120.3328627
"S2201145","台精化學工業股份有限公司",83387845,"高雄市仁武區鳳仁路４０２號",22.7210098,120.3339456
"S2201707","和桐化學股份有限公司",12526607,"高雄市仁武區竹後里竹工２巷１號",22.7095192,120.3327176
"S2201716","長川化工股份有限公司",83449336,"高雄市仁武區竹後里竹楠路７號",22.7084733,120.3326704
"S2203667","台塑大金精密化學股份有限公司仁武廠",70467423,"高雄市仁武區竹後里水管路１００號",22.7059261,120.3350318
"S2300330","聯華低溫設備股份有限公司高雄廠",85622079,"高雄市大社區保社里旗楠路６０號",22.7552403,120.3565721
"S2300447","高雄塑酯化學工業股份有限公司",85803825,"高雄市大社區興工路１號",22.7240417,120.3410755
"S2300465","大連化學工業股份有限公司高雄廠",12233428,"高雄市大社區三奶里興工路１之３號",22.7240417,120.3410755
"S2300572","元際股份有限公司",86802541,"高雄市大社區三奶里興工路３號",22.7191951,120.3428734
"S23A0124","李長榮化學工業股份有限公司大社廠",39054405,"高雄市大社區三奶里經建路２號",22.7274228,120.3426441
"S23A0293","南美工業有限公司",80439094,"高雄市大社區保社里旗楠路９９之１號",22.7493783,120.3455338
"S2600559","泓達化工股份有限公司",23418128,"高雄市燕巢區角宿里中興路９２２號",22.7761679,120.3605456
"S2603498","泓達化工股份有限公司燕巢廠",23418128,"高雄市燕巢區角宿里中興路９２２號",22.7761679,120.3605456
"S2603845","高雄塑酯化學工業股份有限公司科技廠",85803825,"高雄市燕巢區安招里安林六街２９號",22.7871312,120.3335052
"S2900198","灶興企業股份有限公司",88708521,"高雄市路竹區後鄉里新興路１２２巷２號",22.84271,120.239078
"S2900821","長興材料工業股份有限公司路竹廠",75339004,"高雄市路竹區後鄉里長興路２２號",22.846457,120.2432581
"S2902576","立國實業股份有限公司",88705144,"高雄市路竹區順安路２１３巷１８號",22.8400523,120.2428415
"S2902674","誠泰工業科技股份有限公司",88744414,"高雄市路竹區北嶺里中山南路８８號",22.8282303,120.266056
"S2907080","欣峰化學股份有限公司",88651837,"高雄市路竹區環球路１７號",22.8778417,120.2998557
"S29A1122","新揚科技股份有限公司",70774800,"高雄市路竹區路科二路８號",22.828654,120.2589548
"S3001612","吉祥企業社（違章）",20231660,"高雄市湖內區中華街１９號",22.9000891,120.2223223
"S3001747","瑩新壓克力有限公司",89855535,"高雄市湖內區太爺里中山路二段４０之４號",22.9027111,120.2314432
"S3005003","穩翔塑膠實業有限公司",22480313,"高雄市湖內區中賢里中正路二段４９０號",22.9090357,120.2026832
"S3100192","瑞昌亞克力企業股份有限公司",88686603,"高雄市茄萣區白雲里莒光路三段２６１號",22.91122,120.1868061
"S3200320","煜盛股份有限公司",85889506,"高雄市永安區維新里永工九路６、６之２號",22.8160712,120.2503831
"S3200428","勝一化工股份有限公司",75970680,"高雄市永安區維新里永工一路５號",22.8119775,120.2542252
"S3200660","大立高分子工業股份有限公司永安廠",85004174,"高雄市永安區維新里永工二路１８號",22.8156063,120.2526194
"S3200697","聚惠工業股份有限公司",88654026,"高雄市永安區維新里永工一路１０號",22.8141085,120.2544114
"S3201096","國精化學股份有限公司永安廠",75975242,"高雄市永安區維新里永工五路２號",22.8094319,120.2536131
"S3204579","見龍化學工業股份有限公司永安廠",25110784,"高雄市永安區維新里永工二路１０號",22.8131322,120.2522094
"S3204695","勝一化工股份有限公司永安二廠",75970680,"高雄市永安區維新里永工一路１８號",22.8168608,120.2544812
"S32A0084","國精化學股份有限公司",75975242,"高雄市永安區維新里永工五路２號",22.8094319,120.2536131
"S32A0153","見龍化學工業股份有限公司",25110784,"高雄市永安區維新里永工二路１２號",22.8136415,120.2522238
"S32A0193","見龍化學工業股份有限公司吹膜廠",25110784,"高雄市永安區維新里永工二路９號",22.8131742,120.2520348
"T42A1445","亨科企業有限公司",28524400,"屏東縣屏東市屏東工業區工業二路１６之１號",22.6613769,120.4979086
"T42A9598","至茂企業股份有限公司屏?廠",23356734,"屏東縣屏東市建國路３３２巷４４弄５１號",22.6635475,120.4676448
"T42B1492","東澤科技股份有限公司",59369522,"屏東縣屏東市頭前溪段１３４７之００１４地號",22.646284,120.465651
"T4400416","東福塑膠工業股份有限公司",91818564,"屏東縣東港鎮沿海路２０號",22.4662621,120.4634068
"T5001560","春發科技股份有限公司屏東廠",75962990,"屏東縣里港鄉三?村三和路１１９之８８號",22.8061586,120.5014341
"T5005013","春發科技股份有限公司屏東廠",75962990,"屏東縣里港鄉三和路１１９之８８號",22.8061586,120.5014341
"T5204212","大智耘實業股份有限公司高樹廠",80456184,"屏東縣高樹鄉新南村興店路６之８號",22.784762,120.560895
"T53A0337","亨科企業有限公司",28524400,"屏東縣萬巒鄉佳和村佳興路７９之１號",22.5707435,120.5892251
"T54A2160","尊婕科技有限公司",53576783,"屏東縣內埔鄉豐田村建國路２２之１號",22.6416805,120.5441891
"T5700068","帝興樹脂股份有限公司",23224679,"屏東縣枋寮鄉東海村永翔路２７號",22.4110748,120.5740578
"T5700264","泓達化工股份有限公司屏南廠",23418128,"屏東縣枋寮鄉東海村精進路２４、２４之１、２６號",22.407705,120.5775638
"T5700595","聯超實業股份有限公司屏東分公司屏南廠",89609149,"屏東縣枋寮鄉東海村精進路１０號",22.4091235,120.5825588
"T5700620","長興材料工業股份有限公司屏南分公司",75339004,"屏東縣枋寮鄉東海村屏南路２３號",22.4102319,120.5773646
"T5700755","兆欣化學工業股份有限公司",16450092,"屏東縣枋寮鄉東海村精進路１號",22.4118271,120.5844644
"T5704093","宏萊實業股份有限公司屏南廠",76025023,"屏東縣枋寮鄉東海村永翔路１號",22.4139275,120.5834393
"T5704619","和協工程股份有限公司屏南廠",84447589,"屏東縣枋寮鄉東海村永翔路１２、１２之１號",22.4093967,120.5698941
"T57A0080","虹京資源股份有限公司屏南廠",27992242,"屏東縣枋寮鄉東海村永翔路３３、３３之１號",22.403508,120.575093
"T57A0159","虹京金屬股份有限公司二廠",28298045,"屏東縣枋寮鄉東海村永翔路１９號",22.4124489,120.5794623
"T57A1444","虹京金屬股份有限公司",28298045,"屏東縣枋寮鄉東海村永翔路１９號",22.4124489,120.5794623
"T58A0659","國新科技股份有限公司",53229665,"屏東縣新園鄉新園村媽祖路４０８之１號",22.515111,120.4451471
"U9107566","恆春氣體工業有限公司",94826151,"花蓮縣花蓮市民心里美工四街４號",24.0137063,121.6332896
"U9501448","恒春氣體工業有限公司",94826151,"花蓮縣吉安鄉慶南一街５３號",23.9761488,121.5724991
